HIERARCHY
ROOT Parent
{
	OFFSET 0.000000 0.000000 0.000000
	CHANNELS 6 Xposition Yposition Zposition Xrotation Yrotation Zrotation
	JOINT Enfant
	{
		OFFSET 0.000000 0.000000 1.000000
		CHANNELS 3 Xrotation Yrotation Zrotation
		End Site
		{
			OFFSET 0.000000 0.000000 1.000000
		}
	}
}
MOTION
Frames: 240
Frame Time: 0.041667
0.000000 0.000000 0.000000 -0.000000 0.000000 -0.000000 -0.000000 0.000000 -0.000000 
0.000000 0.000000 0.000000 0.651262 0.000000 -0.000000 -0.000000 0.000000 -0.000000 
0.000000 0.000000 0.000000 2.526922 0.000000 -0.000000 -0.000000 0.000000 -0.000000 
0.000000 0.000000 0.000000 5.526492 0.000000 -0.000000 -0.000000 0.000000 -0.000000 
0.000000 0.000000 0.000000 9.560313 0.000000 -0.000000 -0.000000 0.000000 -0.000000 
0.000000 0.000000 0.000000 14.535602 0.000000 -0.000000 -0.000000 0.000000 -0.000000 
0.000000 0.000000 0.000000 20.343628 0.000000 -0.000000 -0.000000 0.000000 -0.000000 
0.000000 0.000000 0.000000 26.849515 0.000000 -0.000000 -0.000000 0.000000 -0.000000 
0.000000 0.000000 0.000000 33.886604 0.000000 -0.000000 -0.000000 0.000000 -0.000000 
0.000000 0.000000 0.000000 41.257529 0.000000 -0.000000 -0.000000 0.000000 -0.000000 
0.000000 0.000000 0.000000 48.742480 0.000000 -0.000000 -0.000000 0.000000 -0.000000 
0.000000 0.000000 0.000000 56.113419 0.000000 -0.000000 -0.000000 0.000000 -0.000000 
0.000000 0.000000 0.000000 63.150502 0.000000 -0.000000 -0.000000 0.000000 -0.000000 
0.000000 0.000000 0.000000 69.656373 0.000000 -0.000000 -0.000002 0.000000 -0.000000 
0.000000 0.000000 0.000000 75.464417 0.000000 -0.000000 -0.000000 0.000000 -0.000000 
0.000000 0.000000 0.000000 80.439691 0.000000 -0.000000 -0.000000 0.000000 -0.000000 
0.000000 0.000000 0.000000 84.473498 0.000000 -0.000000 0.000000 0.000000 -0.000000 
0.000000 0.000000 0.000000 87.473065 0.000000 -0.000000 -0.000000 0.000000 -0.000000 
0.000000 0.000000 0.000000 89.348751 0.000000 -0.000000 -0.000000 0.000000 -0.000000 
0.000000 0.000000 0.000000 90.000009 0.000000 -0.000000 -0.000000 0.000000 -0.000000 
0.000000 0.000000 0.000000 89.616528 0.000000 -0.000000 -0.000000 0.000000 -0.000000 
0.000000 0.000000 0.000000 88.502620 0.000000 -0.000000 -0.000000 0.000000 -0.000000 
0.000000 0.000000 0.000000 86.710747 0.000000 -0.000000 -0.000000 0.000000 -0.000000 
0.000000 0.000000 0.000000 84.291057 0.000000 -0.000000 -0.000000 0.000000 -0.000000 
0.000000 0.000000 0.000000 81.292160 0.000000 -0.000000 0.000001 0.000000 -0.000000 
0.000000 0.000000 0.000000 77.762291 0.000000 -0.000000 -0.000000 0.000000 -0.000000 
0.000000 0.000000 0.000000 73.750238 0.000000 -0.000000 -0.000000 0.000000 -0.000000 
0.000000 0.000000 0.000000 69.305868 0.000000 -0.000000 -0.000000 0.000000 -0.000000 
0.000000 0.000000 0.000000 64.480537 0.000000 -0.000000 -0.000000 0.000000 -0.000000 
0.000000 0.000000 0.000000 59.326798 0.000000 -0.000000 -0.000000 0.000000 -0.000000 
0.000000 0.000000 0.000000 53.897795 0.000000 -0.000000 -0.000000 0.000000 -0.000000 
0.000000 0.000000 0.000000 48.246107 0.000000 -0.000000 -0.000000 0.000000 -0.000000 
0.000000 0.000000 0.000000 42.422414 0.000000 -0.000000 -0.000000 0.000000 -0.000000 
0.000000 0.000000 0.000000 36.473876 0.000000 -0.000000 -0.000000 0.000000 -0.000000 
0.000000 0.000000 0.000000 30.442563 0.000000 -0.000000 -0.000000 0.000000 -0.000000 
0.000000 0.000000 0.000000 24.364067 0.000000 -0.000000 -0.000000 0.000000 -0.000000 
0.000000 0.000000 0.000000 18.266168 0.000000 -0.000000 -0.000000 0.000000 -0.000000 
0.000000 0.000000 0.000000 12.167977 0.000000 -0.000000 -0.000000 0.000000 -0.000000 
0.000000 0.000000 0.000000 6.079287 0.000000 -0.000000 -0.000000 0.000000 -0.000000 
0.000000 0.000000 0.000000 -0.000000 0.000000 -0.000000 -0.000000 0.000000 -0.000000 
0.000000 0.000000 0.000000 -6.079283 0.000000 -0.000000 -0.000000 0.000000 -0.000000 
0.000000 0.000000 0.000000 -12.167983 0.000000 -0.000000 -0.000000 0.000000 -0.000000 
0.000000 0.000000 0.000000 -18.266168 0.000000 -0.000000 -0.000000 0.000000 -0.000000 
0.000000 0.000000 0.000000 -24.364075 0.000000 -0.000000 -0.000000 0.000000 -0.000000 
0.000000 0.000000 0.000000 -30.442573 0.000000 -0.000000 -0.000000 0.000000 -0.000000 
0.000000 0.000000 0.000000 -36.473876 0.000000 -0.000000 -0.000000 0.000000 -0.000000 
0.000000 0.000000 0.000000 -42.422414 0.000000 -0.000000 -0.000000 0.000000 -0.000000 
0.000000 0.000000 0.000000 -48.246107 0.000000 -0.000000 -0.000000 0.000000 -0.000000 
0.000000 0.000000 0.000000 -53.897798 0.000000 -0.000000 0.000002 0.000000 -0.000000 
0.000000 0.000000 0.000000 -59.326805 0.000000 -0.000000 -0.000000 0.000000 -0.000000 
0.000000 0.000000 0.000000 -64.480544 0.000000 -0.000000 -0.000000 0.000000 -0.000000 
0.000000 0.000000 0.000000 -69.305868 0.000000 -0.000000 -0.000000 0.000000 -0.000000 
0.000000 0.000000 0.000000 -73.750252 0.000000 -0.000000 -0.000000 0.000000 -0.000000 
0.000000 0.000000 0.000000 -77.762325 0.000000 -0.000000 -0.000001 0.000000 -0.000000 
0.000000 0.000000 0.000000 -81.292167 0.000000 -0.000000 -0.000000 0.000000 -0.000000 
0.000000 0.000000 0.000000 -84.291064 0.000000 -0.000000 0.000000 0.000000 -0.000000 
0.000000 0.000000 0.000000 -86.710761 0.000000 -0.000000 -0.000000 0.000000 -0.000000 
0.000000 0.000000 0.000000 -88.502627 0.000000 -0.000000 -0.000000 0.000000 -0.000000 
0.000000 0.000000 0.000000 -89.616535 0.000000 -0.000000 -0.000000 0.000000 -0.000000 
0.000000 0.000000 0.000000 -90.000009 0.000000 -0.000000 -0.000000 0.000000 -0.000000 
0.000000 0.000000 0.000000 -89.411295 0.000000 -0.000000 -0.000000 0.000000 -0.000000 
0.000000 0.000000 0.000000 -87.712757 0.000000 -0.000000 0.000000 0.000000 -0.000000 
0.000000 0.000000 0.000000 -84.991534 0.000000 -0.000000 -0.000000 0.000000 -0.000000 
0.000000 0.000000 0.000000 -81.324884 0.000000 -0.000000 -0.000000 0.000000 -0.000000 
0.000000 0.000000 0.000000 -76.790915 0.000000 -0.000000 -0.000000 0.000000 -0.000000 
0.000000 0.000000 0.000000 -71.478777 0.000000 -0.000000 -0.000000 0.000000 -0.000000 
0.000000 0.000000 0.000000 -65.497191 0.000000 -0.000000 0.000002 0.000000 -0.000000 
0.000000 0.000000 0.000000 -58.979981 0.000000 -0.000000 -0.000000 0.000000 -0.000000 
0.000000 0.000000 0.000000 -52.087019 0.000000 -0.000000 -0.000000 0.000000 -0.000000 
0.000000 0.000000 0.000000 -45.000001 0.000000 -0.000000 -0.000000 0.000000 -0.000000 
0.000000 0.000000 0.000000 -37.912970 0.000000 -0.000000 -0.000000 0.000000 -0.000000 
0.000000 0.000000 0.000000 -31.020025 0.000000 -0.000000 -0.000000 0.000000 -0.000000 
0.000000 0.000000 0.000000 -24.502810 0.000000 -0.000000 -0.000000 0.000000 -0.000000 
0.000000 0.000000 0.000000 -18.521231 0.000000 -0.000000 -0.000000 0.000000 -0.000000 
0.000000 0.000000 0.000000 -13.209078 0.000000 -0.000000 -0.000000 0.000000 -0.000000 
0.000000 0.000000 0.000000 -8.675117 0.000000 -0.000000 -0.000000 0.000000 -0.000000 
0.000000 0.000000 0.000000 -5.008464 0.000000 -0.000000 -0.000000 0.000000 -0.000000 
0.000000 0.000000 0.000000 -2.287254 0.000000 -0.000000 -0.000000 0.000000 -0.000000 
0.000000 0.000000 0.000000 -0.588709 0.000000 -0.000000 -0.000000 0.000000 -0.000000 
0.000000 0.000000 0.000000 -0.000000 0.000000 -0.000000 -0.000000 0.000000 -0.000000 
0.000000 0.000000 0.000000 -0.000000 0.588702 -0.000000 -0.000000 0.000000 -0.000000 
0.000000 0.000000 0.000000 -0.000000 2.287255 -0.000000 -0.000000 0.000000 -0.000000 
0.000000 0.000000 0.000000 -0.000000 5.008464 -0.000000 -0.000000 0.000000 -0.000000 
0.000000 0.000000 0.000000 -0.000000 8.675112 -0.000000 -0.000000 0.000000 -0.000000 
0.000000 0.000000 0.000000 -0.000000 13.209086 -0.000000 -0.000000 0.000000 -0.000000 
0.000000 0.000000 0.000000 -0.000000 18.521224 -0.000000 -0.000000 -0.000002 -0.000000 
0.000000 0.000000 0.000000 -0.000000 24.502807 -0.000000 -0.000000 0.000000 -0.000000 
0.000000 0.000000 0.000000 -0.000000 31.020021 -0.000000 -0.000000 0.000000 -0.000000 
0.000000 0.000000 0.000000 -0.000000 37.912987 -0.000000 -0.000000 0.000000 -0.000000 
0.000000 0.000000 0.000000 -0.000000 45.000001 -0.000000 -0.000000 0.000000 -0.000000 
0.000000 0.000000 0.000000 -0.000000 52.087033 -0.000000 -0.000000 0.000000 -0.000000 
0.000000 0.000000 0.000000 -0.000000 58.979974 -0.000000 -0.000000 0.000000 -0.000000 
0.000000 0.000000 0.000000 -0.000000 65.497191 -0.000000 -0.000000 -0.000002 -0.000000 
0.000000 0.000000 0.000000 -0.000000 71.478777 -0.000000 -0.000000 0.000000 -0.000000 
0.000000 0.000000 0.000000 -0.000000 76.790922 -0.000000 -0.000000 0.000000 -0.000000 
0.000000 0.000000 0.000000 -0.000000 81.324884 -0.000000 -0.000000 0.000000 -0.000000 
0.000000 0.000000 0.000000 -0.000000 84.991534 -0.000000 -0.000000 0.000000 -0.000000 
0.000000 0.000000 0.000000 -0.000000 87.712757 -0.000000 -0.000000 -0.000000 -0.000000 
0.000000 0.000000 0.000000 -0.000000 89.411295 -0.000000 -0.000000 0.000000 -0.000000 
0.000000 0.000000 0.000000 -0.000000 89.999996 0.000000 -0.000000 0.000000 -0.000000 
0.000000 0.000000 0.000000 -0.000000 89.616528 -0.000000 -0.000000 0.000000 -0.000000 
0.000000 0.000000 0.000000 -0.000000 88.502620 -0.000000 -0.000000 0.000000 -0.000000 
0.000000 0.000000 0.000000 -0.000000 86.710747 -0.000000 -0.000000 0.000000 -0.000000 
0.000000 0.000000 0.000000 -0.000000 84.291050 -0.000000 -0.000000 0.000000 -0.000000 
0.000000 0.000000 0.000000 -0.000000 81.292160 -0.000000 -0.000000 0.000001 -0.000000 
0.000000 0.000000 0.000000 -0.000000 77.762305 -0.000000 -0.000000 0.000000 -0.000000 
0.000000 0.000000 0.000000 -0.000000 73.750238 -0.000000 -0.000000 0.000000 -0.000000 
0.000000 0.000000 0.000000 -0.000000 69.305868 -0.000000 -0.000000 0.000000 -0.000000 
0.000000 0.000000 0.000000 -0.000000 64.480537 -0.000000 -0.000000 0.000000 -0.000000 
0.000000 0.000000 0.000000 -0.000000 59.326805 -0.000000 -0.000000 0.000000 -0.000000 
0.000000 0.000000 0.000000 -0.000000 53.897795 -0.000000 -0.000000 0.000000 -0.000000 
0.000000 0.000000 0.000000 -0.000000 48.246117 -0.000000 -0.000000 0.000000 -0.000000 
0.000000 0.000000 0.000000 -0.000000 42.422428 -0.000000 -0.000000 0.000000 -0.000000 
0.000000 0.000000 0.000000 -0.000000 36.473890 -0.000000 -0.000000 0.000000 -0.000000 
0.000000 0.000000 0.000000 -0.000000 30.442577 -0.000000 -0.000000 0.000000 -0.000000 
0.000000 0.000000 0.000000 -0.000000 24.364077 -0.000000 -0.000000 0.000000 -0.000000 
0.000000 0.000000 0.000000 -0.000000 18.266171 -0.000000 -0.000000 0.000000 -0.000000 
0.000000 0.000000 0.000000 -0.000000 12.167991 -0.000000 -0.000000 0.000000 -0.000000 
0.000000 0.000000 0.000000 -0.000000 6.079288 -0.000000 -0.000000 0.000000 -0.000000 
0.000000 0.000000 0.000000 -0.000000 0.000000 -0.000000 -0.000000 0.000000 -0.000000 
0.000000 0.000000 0.000000 -0.000000 -6.079286 -0.000000 -0.000000 0.000000 -0.000000 
0.000000 0.000000 0.000000 -0.000000 -12.167990 -0.000000 -0.000000 0.000000 -0.000000 
0.000000 0.000000 0.000000 -0.000000 -18.266176 -0.000000 -0.000000 0.000000 -0.000000 
0.000000 0.000000 0.000000 -0.000000 -24.364086 -0.000000 -0.000000 0.000000 -0.000000 
0.000000 0.000000 0.000000 -0.000000 -30.442590 -0.000000 -0.000000 0.000000 -0.000000 
0.000000 0.000000 0.000000 -0.000000 -36.473883 -0.000000 -0.000000 0.000000 -0.000000 
0.000000 0.000000 0.000000 -0.000000 -42.422428 -0.000000 -0.000000 0.000000 -0.000000 
0.000000 0.000000 0.000000 -0.000000 -48.246124 -0.000000 -0.000000 0.000000 -0.000000 
0.000000 0.000000 0.000000 -0.000000 -53.897815 -0.000000 -0.000000 0.000002 -0.000000 
0.000000 0.000000 0.000000 -0.000000 -59.326818 -0.000000 -0.000000 -0.000002 -0.000000 
0.000000 0.000000 0.000000 -0.000000 -64.480565 -0.000000 -0.000000 0.000000 -0.000000 
0.000000 0.000000 0.000000 -0.000000 -69.305889 -0.000000 -0.000000 0.000000 -0.000000 
0.000000 0.000000 0.000000 -0.000000 -73.750258 -0.000000 -0.000000 0.000000 -0.000000 
0.000000 0.000000 0.000000 -0.000000 -77.762318 -0.000000 -0.000000 0.000000 -0.000000 
0.000000 0.000000 0.000000 -0.000000 -81.292167 -0.000000 -0.000000 -0.000001 -0.000000 
0.000000 0.000000 0.000000 -0.000000 -84.291071 -0.000000 -0.000000 0.000000 -0.000000 
0.000000 0.000000 0.000000 -0.000000 -86.710761 -0.000000 -0.000000 0.000000 -0.000000 
0.000000 0.000000 0.000000 -0.000000 -88.502627 -0.000000 -0.000000 0.000000 -0.000000 
0.000000 0.000000 0.000000 -0.000000 -89.616542 -0.000000 -0.000000 0.000000 -0.000000 
0.000000 0.000000 0.000000 -0.000000 -89.999996 0.000000 -0.000000 0.000000 -0.000000 
0.000000 0.000000 0.000000 -0.000000 -89.411302 -0.000000 -0.000000 0.000000 -0.000000 
0.000000 0.000000 0.000000 -0.000000 -87.712763 -0.000000 -0.000000 0.000000 -0.000000 
0.000000 0.000000 0.000000 -0.000000 -84.991541 -0.000000 -0.000000 -0.000000 -0.000000 
0.000000 0.000000 0.000000 -0.000000 -81.324897 -0.000000 -0.000000 0.000000 -0.000000 
0.000000 0.000000 0.000000 -0.000000 -76.790922 -0.000000 -0.000000 -0.000001 -0.000000 
0.000000 0.000000 0.000000 -0.000000 -71.478797 -0.000000 -0.000000 -0.000002 -0.000000 
0.000000 0.000000 0.000000 -0.000000 -65.497211 -0.000000 -0.000000 -0.000002 -0.000000 
0.000000 0.000000 0.000000 -0.000000 -58.979988 -0.000000 -0.000000 0.000000 -0.000000 
0.000000 0.000000 0.000000 -0.000000 -52.087033 -0.000000 -0.000000 0.000000 -0.000000 
0.000000 0.000000 0.000000 -0.000000 -45.000001 -0.000000 -0.000000 0.000000 -0.000000 
0.000000 0.000000 0.000000 -0.000000 -37.912970 -0.000000 -0.000000 0.000000 -0.000000 
0.000000 0.000000 0.000000 -0.000000 -31.020021 -0.000000 -0.000000 0.000000 -0.000000 
0.000000 0.000000 0.000000 -0.000000 -24.502795 -0.000000 -0.000000 0.000000 -0.000000 
0.000000 0.000000 0.000000 -0.000000 -18.521221 -0.000000 -0.000000 0.000000 -0.000000 
0.000000 0.000000 0.000000 -0.000000 -13.209073 -0.000000 -0.000000 0.000000 -0.000000 
0.000000 0.000000 0.000000 -0.000000 -8.675098 -0.000000 -0.000000 0.000000 -0.000000 
0.000000 0.000000 0.000000 -0.000000 -5.008450 -0.000000 -0.000000 0.000000 -0.000000 
0.000000 0.000000 0.000000 -0.000000 -2.287254 -0.000000 -0.000000 0.000000 -0.000000 
0.000000 0.000000 0.000000 -0.000000 -0.588710 -0.000000 -0.000000 0.000000 -0.000000 
0.000000 0.000000 0.000000 -0.000000 0.000000 -0.000000 -0.000000 0.000000 -0.000000 
0.000000 0.000000 0.000000 0.317931 0.000000 -0.000000 -0.000000 0.000000 -0.000000 
0.000000 0.000000 0.000000 1.227909 0.000000 -0.000000 -0.000000 0.000000 -0.000000 
0.000000 0.000000 0.000000 2.664229 0.000000 -0.000000 -0.000000 0.000000 -0.000000 
0.000000 0.000000 0.000000 4.561005 0.000000 -0.000000 -0.000000 0.000000 -0.000000 
0.000000 0.000000 0.000000 6.851899 0.000000 -0.000000 -0.000000 0.000000 -0.000000 
0.000000 0.000000 0.000000 9.469979 0.000000 -0.000000 -0.000000 0.000000 -0.000000 
0.000000 0.000000 0.000000 12.347823 0.000000 -0.000000 -0.000000 0.000000 -0.000000 
0.000000 0.000000 0.000000 15.417861 0.000000 -0.000000 -0.000000 0.000000 -0.000000 
0.000000 0.000000 0.000000 18.613008 0.000000 -0.000000 -0.000000 0.000000 -0.000000 
0.000000 0.000000 0.000000 21.867418 0.000000 -0.000000 -0.000000 0.000000 -0.000000 
0.000000 0.000000 0.000000 25.117269 0.000000 -0.000000 -0.000000 0.000000 -0.000000 
0.000000 0.000000 0.000000 28.301480 0.000000 -0.000000 -0.000000 0.000000 -0.000000 
0.000000 0.000000 0.000000 31.362152 0.000000 -0.000000 -0.000000 0.000000 -0.000000 
0.000000 0.000000 0.000000 34.244704 0.000000 -0.000000 -0.000000 0.000000 -0.000000 
0.000000 0.000000 0.000000 36.897628 0.000000 -0.000000 -0.000000 0.000000 -0.000000 
0.000000 0.000000 0.000000 39.271761 0.000000 -0.000000 -0.000000 0.000000 -0.000000 
0.000000 0.000000 0.000000 41.319127 0.000000 -0.000000 -0.000000 0.000000 -0.000000 
0.000000 0.000000 0.000000 42.991239 0.000000 -0.000000 -0.000000 0.000000 -0.000000 
0.000000 0.000000 0.000000 44.237049 0.000000 -0.000000 -0.000000 0.000000 -0.000000 
0.000000 0.000000 0.000000 45.000001 0.000000 -0.000000 -0.000000 0.000000 -0.000000 
0.000000 0.000000 0.000000 45.481502 0.151824 0.150553 -0.000002 0.000000 0.000000 
0.000000 0.000000 0.000000 45.924976 0.608143 0.598404 0.000002 -0.000000 -0.000000 
0.000000 0.000000 0.000000 46.327011 1.372978 1.341545 -0.000002 -0.000000 -0.000000 
0.000000 0.000000 0.000000 46.678684 2.453746 2.382909 0.000000 -0.000000 0.000000 
0.000000 0.000000 0.000000 46.965054 3.860756 3.730658 0.000001 -0.000000 0.000000 
0.000000 0.000000 0.000000 47.164317 5.606426 5.398860 -0.000001 0.000001 0.000000 
0.000000 0.000000 0.000000 47.246444 7.704087 7.408638 0.000001 0.000000 -0.000000 
0.000000 0.000000 0.000000 47.171090 10.166153 9.789920 0.000002 -0.000000 0.000001 
0.000000 0.000000 0.000000 46.885017 13.001435 12.584005 -0.000002 -0.000001 -0.000001 
0.000000 0.000000 0.000000 46.318231 16.211147 15.847130 0.000000 -0.000001 -0.000001 
0.000000 0.000000 0.000000 45.379138 19.783221 19.655293 0.000001 -0.000000 0.000001 
0.000000 0.000000 0.000000 43.948248 23.684362 24.110443 -0.000001 -0.000000 0.000001 
0.000000 0.000000 0.000000 41.871467 27.849360 29.347294 0.000001 0.000001 -0.000001 
0.000000 0.000000 0.000000 38.954939 32.167572 35.538687 0.000001 0.000002 0.000000 
0.000000 0.000000 0.000000 34.968417 36.467350 42.892256 0.000003 -0.000000 0.000001 
0.000000 0.000000 0.000000 29.672483 40.502578 51.623751 -0.000001 0.000001 -0.000001 
0.000000 0.000000 0.000000 22.894611 43.951390 61.881200 -0.000000 0.000001 -0.000000 
0.000000 0.000000 0.000000 14.672242 46.446782 73.602440 0.000002 0.000000 -0.000000 
0.000000 0.000000 0.000000 5.411097 47.659066 86.357039 -0.000002 0.000000 0.000000 
0.000000 0.000000 0.000000 -4.109689 47.415655 99.341919 -0.000001 0.000000 0.000000 
0.000000 0.000000 0.000000 -13.009887 45.781088 111.653820 -0.000001 -0.000001 -0.000001 
0.000000 0.000000 0.000000 -20.670808 43.024639 122.652521 -0.000000 0.000000 0.000001 
0.000000 0.000000 0.000000 -26.875659 39.505428 132.101350 -0.000004 -0.000002 -0.000001 
0.000000 0.000000 0.000000 -31.705868 35.565878 140.063752 -0.000001 -0.000002 -0.000001 
0.000000 0.000000 0.000000 -35.376053 31.479126 146.738432 0.000001 0.000002 0.000000 
0.000000 0.000000 0.000000 -38.123001 27.440375 152.348189 0.000001 -0.000002 -0.000002 
0.000000 0.000000 0.000000 -40.156820 23.578132 157.091209 -0.000000 0.000000 0.000000 
0.000000 0.000000 0.000000 -41.647884 19.970543 161.127673 -0.000002 0.000001 0.000003 
0.000000 0.000000 0.000000 -42.729028 16.660307 164.581905 -0.000002 -0.000002 0.000000 
0.000000 0.000000 0.000000 -43.502144 13.666380 167.548625 0.000001 -0.000001 -0.000001 
0.000000 0.000000 0.000000 -44.044980 10.992707 170.099646 -0.000001 0.000000 -0.000000 
0.000000 0.000000 0.000000 -44.417024 8.634344 172.289254 0.000002 -0.000001 -0.000001 
0.000000 0.000000 0.000000 -44.663823 6.581705 174.158472 -0.000001 0.000000 0.000000 
0.000000 0.000000 0.000000 -44.820408 4.823518 175.738090 0.000001 -0.000000 -0.000000 
0.000000 0.000000 0.000000 -44.913770 3.348708 177.050880 -0.000003 0.000000 0.000000 
0.000000 0.000000 0.000000 -44.964631 2.147857 178.113083 0.000001 -0.000000 -0.000000 
0.000000 0.000000 0.000000 -44.988725 1.214082 178.935465 -0.000002 0.000000 0.000000 
0.000000 0.000000 0.000000 -44.997747 0.543799 179.523941 -0.000000 0.000000 -0.000000 
0.000000 0.000000 0.000000 -44.999854 0.137433 179.879862 -0.000000 -0.000000 -0.000000 
0.000000 0.000000 0.000000 -45.000001 -0.000004 180.000019 0.000000 -0.000000 0.000000 
0.000000 0.000000 0.000000 -44.997846 0.320232 179.226855 0.000001 -0.000000 -0.000000 
0.000000 0.000000 0.000000 -44.966404 1.262284 176.950640 0.000000 -0.000000 -0.000000 
0.000000 0.000000 0.000000 -44.831016 2.825657 173.156456 0.000001 0.000000 0.000000 
0.000000 0.000000 0.000000 -44.459341 5.028781 167.734706 -0.000002 0.000000 0.000000 
0.000000 0.000000 0.000000 -43.643772 7.876312 160.489310 0.000000 0.000000 -0.000000 
0.000000 0.000000 0.000000 -42.083913 11.302530 151.149983 0.000006 0.000001 0.000001 
0.000000 0.000000 0.000000 -39.395476 15.081596 139.415185 -0.000003 0.000001 -0.000002 
0.000000 0.000000 0.000000 -35.205493 18.725044 125.080749 -0.000001 0.000000 -0.000000 
0.000000 0.000000 0.000000 -29.407294 21.466134 108.316309 0.000001 0.000001 0.000001 
0.000000 0.000000 0.000000 -22.500002 22.499996 90.000003 -0.000000 -0.000001 0.000001 
0.000000 0.000000 0.000000 -15.592719 21.466132 71.683710 -0.000001 0.000000 -0.000002 
0.000000 0.000000 0.000000 -9.794511 18.725051 54.919263 -0.000000 -0.000001 0.000001 
0.000000 0.000000 0.000000 -5.604535 15.081599 40.584820 0.000001 0.000001 -0.000003 
0.000000 0.000000 0.000000 -2.916097 11.302545 28.850026 -0.000000 -0.000000 -0.000000 
0.000000 0.000000 0.000000 -1.356230 7.876318 19.510671 0.000000 0.000000 -0.000002 
0.000000 0.000000 0.000000 -0.540666 5.028790 12.265292 -0.000000 0.000000 -0.000000 
0.000000 0.000000 0.000000 -0.168989 2.825659 6.843546 -0.000000 0.000000 -0.000000 
0.000000 0.000000 0.000000 -0.033602 1.262295 3.049358 -0.000000 -0.000000 -0.000000 
0.000000 0.000000 0.000000 -0.002163 0.320231 0.773163 0.000000 -0.000000 0.000000 
0.000000 0.000000 0.000000 -0.000000 0.000000 -0.000000 -0.000000 0.000000 -0.000000 
