HIERARCHY
ROOT mixamorig:Hips
{
	OFFSET 0.000000 0.397652 967.588257
	CHANNELS 6 Xposition Yposition Zposition Xrotation Yrotation Zrotation
	JOINT mixamorig:Spine
	{
		OFFSET 0.000031 9.332268 96.731445
		CHANNELS 6 Xposition Yposition Zposition Xrotation Yrotation Zrotation
		JOINT mixamorig:Spine1
		{
			OFFSET 0.000000 9.718329 111.790283
			CHANNELS 3 Xrotation Yrotation Zrotation
			JOINT mixamorig:Spine2
			{
				OFFSET 0.000000 11.185614 128.667847
				CHANNELS 3 Xrotation Yrotation Zrotation
				JOINT mixamorig:Neck
				{
					OFFSET 0.000000 11.280855 144.446411
					CHANNELS 6 Xposition Yposition Zposition Xrotation Yrotation Zrotation
					JOINT mixamorig:Head
					{
						OFFSET 0.000000 -5.374390 35.128662
						CHANNELS 6 Xposition Yposition Zposition Xrotation Yrotation Zrotation
						JOINT mixamorig:HeadTop_End
						{
							OFFSET 0.000000 -33.815300 241.900635
							CHANNELS 6 Xposition Yposition Zposition Xrotation Yrotation Zrotation
							End Site
							{
								OFFSET 0.000000 0.075751 184.607910
							}
						}
						JOINT mixamorig:LeftEye
						{
							OFFSET 32.172596 -110.007034 103.953613
							CHANNELS 6 Xposition Yposition Zposition Xrotation Yrotation Zrotation
							End Site
							{
								OFFSET 0.000000 0.075859 184.607666
							}
						}
						JOINT mixamorig:RightEye
						{
							OFFSET -32.625195 -110.007050 103.962646
							CHANNELS 6 Xposition Yposition Zposition Xrotation Yrotation Zrotation
							End Site
							{
								OFFSET 0.000000 0.075928 184.607666
							}
						}
					}
				}
				JOINT mixamorig:LeftShoulder
				{
					OFFSET 69.790291 11.520010 120.819580
					CHANNELS 6 Xposition Yposition Zposition Xrotation Yrotation Zrotation
					JOINT mixamorig:LeftArm
					{
						OFFSET 143.759308 0.125023 -23.863037
						CHANNELS 3 Xrotation Yrotation Zrotation
						JOINT mixamorig:LeftForeArm
						{
							OFFSET 258.965637 0.000000 0.000000
							CHANNELS 3 Xrotation Yrotation Zrotation
							JOINT mixamorig:LeftHand
							{
								OFFSET 268.866760 0.000000 0.000000
								CHANNELS 3 Xrotation Yrotation Zrotation
								JOINT mixamorig:LeftHandPinky1
								{
									OFFSET 87.101868 53.394665 -0.191162
									CHANNELS 6 Xposition Yposition Zposition Xrotation Yrotation Zrotation
									JOINT mixamorig:LeftHandPinky2
									{
										OFFSET 20.604248 0.000000 0.000000
										CHANNELS 3 Xrotation Yrotation Zrotation
										JOINT mixamorig:LeftHandPinky3
										{
											OFFSET 17.707581 0.000000 0.000000
											CHANNELS 3 Xrotation Yrotation Zrotation
											JOINT mixamorig:LeftHandPinky4
											{
												OFFSET 19.202087 0.000000 0.000000
												CHANNELS 3 Xrotation Yrotation Zrotation
												End Site
												{
													OFFSET 19.202087 0.000000 0.000000
												}
											}
										}
									}
								}
								JOINT mixamorig:LeftHandRing1
								{
									OFFSET 104.340210 29.666088 -0.662720
									CHANNELS 6 Xposition Yposition Zposition Xrotation Yrotation Zrotation
									JOINT mixamorig:LeftHandRing2
									{
										OFFSET 26.164307 0.000000 0.000000
										CHANNELS 3 Xrotation Yrotation Zrotation
										JOINT mixamorig:LeftHandRing3
										{
											OFFSET 21.622192 0.000000 0.000000
											CHANNELS 3 Xrotation Yrotation Zrotation
											JOINT mixamorig:LeftHandRing4
											{
												OFFSET 24.893311 0.000000 0.000000
												CHANNELS 3 Xrotation Yrotation Zrotation
												End Site
												{
													OFFSET 24.893311 0.000000 0.000000
												}
											}
										}
									}
								}
								JOINT mixamorig:LeftHandMiddle1
								{
									OFFSET 116.450012 0.000000 0.000000
									CHANNELS 6 Xposition Yposition Zposition Xrotation Yrotation Zrotation
									JOINT mixamorig:LeftHandMiddle2
									{
										OFFSET 28.784912 0.000000 0.000000
										CHANNELS 3 Xrotation Yrotation Zrotation
										JOINT mixamorig:LeftHandMiddle3
										{
											OFFSET 23.377075 0.000000 0.000000
											CHANNELS 3 Xrotation Yrotation Zrotation
											JOINT mixamorig:LeftHandMiddle4
											{
												OFFSET 29.789612 0.000000 0.000000
												CHANNELS 3 Xrotation Yrotation Zrotation
												End Site
												{
													OFFSET 29.789612 0.000000 0.000000
												}
											}
										}
									}
								}
								JOINT mixamorig:LeftHandIndex1
								{
									OFFSET 114.299683 -34.524841 -0.469971
									CHANNELS 6 Xposition Yposition Zposition Xrotation Yrotation Zrotation
									JOINT mixamorig:LeftHandIndex2
									{
										OFFSET 24.405151 0.000000 0.000000
										CHANNELS 3 Xrotation Yrotation Zrotation
										JOINT mixamorig:LeftHandIndex3
										{
											OFFSET 20.377502 0.000000 0.000000
											CHANNELS 3 Xrotation Yrotation Zrotation
											JOINT mixamorig:LeftHandIndex4
											{
												OFFSET 24.587708 0.000000 0.000000
												CHANNELS 3 Xrotation Yrotation Zrotation
												End Site
												{
													OFFSET 24.587708 0.000000 0.000000
												}
											}
										}
									}
								}
								JOINT mixamorig:LeftHandThumb1
								{
									OFFSET 27.695435 -23.022173 -32.867065
									CHANNELS 6 Xposition Yposition Zposition Xrotation Yrotation Zrotation
									JOINT mixamorig:LeftHandThumb2
									{
										OFFSET 30.385803 -17.550455 -17.536011
										CHANNELS 6 Xposition Yposition Zposition Xrotation Yrotation Zrotation
										JOINT mixamorig:LeftHandThumb3
										{
											OFFSET 31.180664 -18.009558 -17.994629
											CHANNELS 3 Xrotation Yrotation Zrotation
											JOINT mixamorig:LeftHandThumb4
											{
												OFFSET 21.373962 -12.345375 -12.335205
												CHANNELS 3 Xrotation Yrotation Zrotation
												End Site
												{
													OFFSET 21.374084 -12.345289 -12.335449
												}
											}
										}
									}
								}
							}
						}
					}
				}
				JOINT mixamorig:RightShoulder
				{
					OFFSET -69.078392 10.946230 120.819824
					CHANNELS 6 Xposition Yposition Zposition Xrotation Yrotation Zrotation
					JOINT mixamorig:RightArm
					{
						OFFSET -144.806183 -0.681892 -23.862671
						CHANNELS 3 Xrotation Yrotation Zrotation
						JOINT mixamorig:RightForeArm
						{
							OFFSET -259.772034 0.000000 0.000000
							CHANNELS 3 Xrotation Yrotation Zrotation
							JOINT mixamorig:RightHand
							{
								OFFSET -272.703766 0.000000 0.000000
								CHANNELS 3 Xrotation Yrotation Zrotation
								JOINT mixamorig:RightHandThumb1
								{
									OFFSET -26.220764 -23.595608 -31.879150
									CHANNELS 6 Xposition Yposition Zposition Xrotation Yrotation Zrotation
									JOINT mixamorig:RightHandThumb2
									{
										OFFSET -29.154907 -16.839527 -16.825806
										CHANNELS 6 Xposition Yposition Zposition Xrotation Yrotation Zrotation
										JOINT mixamorig:RightHandThumb3
										{
											OFFSET -29.892456 -17.265484 -17.251221
											CHANNELS 6 Xposition Yposition Zposition Xrotation Yrotation Zrotation
											JOINT mixamorig:RightHandThumb4
											{
												OFFSET -19.634216 -11.340481 -11.331177
												CHANNELS 3 Xrotation Yrotation Zrotation
												End Site
												{
													OFFSET -19.634155 -11.340462 -11.331177
												}
											}
										}
									}
								}
								JOINT mixamorig:RightHandIndex1
								{
									OFFSET -110.723389 -33.243320 0.390747
									CHANNELS 6 Xposition Yposition Zposition Xrotation Yrotation Zrotation
									JOINT mixamorig:RightHandIndex2
									{
										OFFSET -25.451904 0.000000 0.000000
										CHANNELS 3 Xrotation Yrotation Zrotation
										JOINT mixamorig:RightHandIndex3
										{
											OFFSET -20.847168 0.000000 0.000000
											CHANNELS 3 Xrotation Yrotation Zrotation
											JOINT mixamorig:RightHandIndex4
											{
												OFFSET -22.926208 0.000000 0.000000
												CHANNELS 3 Xrotation Yrotation Zrotation
												End Site
												{
													OFFSET -22.926208 0.000000 0.000000
												}
											}
										}
									}
								}
								JOINT mixamorig:RightHandMiddle1
								{
									OFFSET -114.966125 0.000000 0.000000
									CHANNELS 6 Xposition Yposition Zposition Xrotation Yrotation Zrotation
									JOINT mixamorig:RightHandMiddle2
									{
										OFFSET -29.163940 0.000000 0.000000
										CHANNELS 3 Xrotation Yrotation Zrotation
										JOINT mixamorig:RightHandMiddle3
										{
											OFFSET -24.051331 0.000000 0.000000
											CHANNELS 3 Xrotation Yrotation Zrotation
											JOINT mixamorig:RightHandMiddle4
											{
												OFFSET -29.831299 0.000000 0.000000
												CHANNELS 3 Xrotation Yrotation Zrotation
												End Site
												{
													OFFSET -29.831299 0.000000 0.000000
												}
											}
										}
									}
								}
								JOINT mixamorig:RightHandRing1
								{
									OFFSET -106.183838 30.576897 0.867798
									CHANNELS 6 Xposition Yposition Zposition Xrotation Yrotation Zrotation
									JOINT mixamorig:RightHandRing2
									{
										OFFSET -25.971924 0.000000 0.000000
										CHANNELS 3 Xrotation Yrotation Zrotation
										JOINT mixamorig:RightHandRing3
										{
											OFFSET -21.707886 0.000000 0.000000
											CHANNELS 3 Xrotation Yrotation Zrotation
											JOINT mixamorig:RightHandRing4
											{
												OFFSET -21.446777 0.000000 0.000000
												CHANNELS 3 Xrotation Yrotation Zrotation
												End Site
												{
													OFFSET -21.446777 0.000000 0.000000
												}
											}
										}
									}
								}
								JOINT mixamorig:RightHandPinky1
								{
									OFFSET -88.638245 55.841194 -0.037964
									CHANNELS 6 Xposition Yposition Zposition Xrotation Yrotation Zrotation
									JOINT mixamorig:RightHandPinky2
									{
										OFFSET -19.054565 0.000000 0.000000
										CHANNELS 3 Xrotation Yrotation Zrotation
										JOINT mixamorig:RightHandPinky3
										{
											OFFSET -18.459290 0.000000 0.000000
											CHANNELS 3 Xrotation Yrotation Zrotation
											JOINT mixamorig:RightHandPinky4
											{
												OFFSET -18.842529 0.000000 0.000000
												CHANNELS 3 Xrotation Yrotation Zrotation
												End Site
												{
													OFFSET -18.842529 0.000000 0.000000
												}
											}
										}
									}
								}
							}
						}
					}
				}
			}
		}
	}
	JOINT mixamorig:RightUpLeg
	{
		OFFSET -112.362793 -5.201166 -53.494385
		CHANNELS 6 Xposition Yposition Zposition Xrotation Yrotation Zrotation
		JOINT mixamorig:RightLeg
		{
			OFFSET -0.000031 -16.498615 -398.659180
			CHANNELS 3 Xrotation Yrotation Zrotation
			JOINT mixamorig:RightFoot
			{
				OFFSET -0.000031 42.156204 -405.779236
				CHANNELS 3 Xrotation Yrotation Zrotation
				JOINT mixamorig:RightToeBase
				{
					OFFSET -11.908974 -153.147858 -105.511368
					CHANNELS 3 Xrotation Yrotation Zrotation
					JOINT mixamorig:RightToe_End
					{
						OFFSET -4.373909 -77.734619 -0.614441
						CHANNELS 3 Xrotation Yrotation Zrotation
						End Site
						{
							OFFSET -4.373917 -77.734604 -0.614450
						}
					}
				}
			}
		}
	}
	JOINT mixamorig:LeftUpLeg
	{
		OFFSET 111.449074 -5.201073 -53.494507
		CHANNELS 6 Xposition Yposition Zposition Xrotation Yrotation Zrotation
		JOINT mixamorig:LeftLeg
		{
			OFFSET 0.000023 -16.498587 -398.658691
			CHANNELS 3 Xrotation Yrotation Zrotation
			JOINT mixamorig:LeftFoot
			{
				OFFSET 0.000023 42.156281 -405.779968
				CHANNELS 3 Xrotation Yrotation Zrotation
				JOINT mixamorig:LeftToeBase
				{
					OFFSET 11.908859 -153.147461 -105.511017
					CHANNELS 6 Xposition Yposition Zposition Xrotation Yrotation Zrotation
					JOINT mixamorig:LeftToe_End
					{
						OFFSET 4.373550 -77.734360 -0.614578
						CHANNELS 3 Xrotation Yrotation Zrotation
						End Site
						{
							OFFSET 4.373543 -77.734329 -0.614555
						}
					}
				}
			}
		}
	}
}
MOTION
Frames: 30
Frame Time: 0.033333
4.329602 11.764238 938.047546 -1.062605 4.419380 10.114881 0.000024 9.332278 96.731529 2.571307 -3.284157 -0.767079 1.622438 -0.846218 -2.278578 -2.933766 -0.252648 -2.284973 -0.000001 11.280850 144.446320 -3.347804 0.983280 -1.151811 -0.000003 -5.374388 35.128777 -1.370229 -0.311105 -3.841444 0.000001 -33.815296 241.900635 0.000000 0.000000 -0.000000 32.172604 -110.007042 103.953613 -0.000000 0.000000 -0.000000 -32.625198 -110.007042 103.962524 -0.000000 0.000000 -0.000000 69.790291 11.520004 120.819427 7.156642 -2.938976 -20.956822 -17.038686 76.245689 19.156700 -0.004496 -0.013980 -36.305208 18.024266 -5.111779 -20.037875 87.101776 53.394627 -0.191163 -4.542733 30.425812 15.723176 -1.000648 29.067151 3.054214 -0.105459 6.722305 1.538110 -0.000001 -0.000000 -0.000000 104.340218 29.666088 -0.662772 -4.566595 34.022166 9.659053 -0.195032 17.162420 2.086709 0.028854 12.582651 1.236324 0.000000 -0.000002 0.000000 116.450027 -0.000031 -0.000018 -1.643022 16.341088 7.940362 -1.144898 27.051529 3.854529 -0.256232 15.979284 1.914140 -0.000001 0.000001 -0.000002 114.299690 -34.524895 -0.470074 0.565080 -3.978181 3.510487 -0.478103 16.801461 2.568142 -0.032277 3.850856 0.177310 -0.000003 0.000001 0.000001 27.695475 -23.022104 -32.867100 32.254376 -20.503661 9.509987 30.385729 -17.550381 -17.536013 -12.570859 11.728219 18.437112 7.672298 -1.384629 -11.224659 -0.000002 -0.000000 -0.000001 -69.078415 10.946218 120.819679 -0.360087 -5.371885 5.271909 12.851285 -73.576765 -9.610517 -0.003612 0.012663 32.516748 26.048284 -4.002941 8.402979 -26.220600 -23.595562 -31.879269 15.112099 17.039481 -8.537978 -29.154921 -16.839504 -16.825802 7.321706 13.263566 -5.464898 -29.892494 -17.265575 -17.251429 -12.568201 -8.989606 7.544120 0.000002 -0.000001 -0.000002 -110.723366 -33.243309 0.390695 -0.780780 -10.771796 0.822017 -1.068925 -26.697326 -3.787775 -0.352176 -17.432562 -0.611631 0.000001 0.000002 -0.000000 -114.965950 0.000015 -0.000121 -2.605384 -22.871471 -8.801061 -2.222405 -37.895638 -5.522663 -1.026509 -31.033490 -3.575551 0.000000 -0.000000 0.000001 -106.183830 30.576904 0.867763 -6.183640 -40.443558 -11.402606 -0.428498 -23.776524 -2.825418 -0.206502 -20.215079 -0.214960 0.000000 0.000002 -0.000005 -88.638077 55.841209 -0.038037 -7.699572 -44.338122 -14.427736 -3.357508 -48.903823 -6.571924 -2.818447 -43.212612 -3.551283 -0.000000 -0.000002 0.000001 -112.362816 -5.201153 -53.494457 -10.129680 -9.606886 -13.002326 16.421035 1.938801 1.246811 -7.134995 5.267074 -4.740379 -2.772867 -0.000018 -0.000009 -0.000000 0.000000 -0.000000 111.449074 -5.201091 -53.494526 -23.575496 -2.942287 -0.868065 64.100308 -6.922116 2.167962 2.799114 1.267299 0.180205 11.908856 -153.147446 -105.511032 -3.383075 2.189186 0.068451 -0.000004 -0.000000 -0.000001 
6.998765 11.863365 941.390747 -0.003287 3.468282 8.483823 0.000025 9.332263 96.731415 2.207988 -2.730759 -0.254692 1.314443 -0.284936 -1.249784 -3.211721 0.283123 -1.239570 -0.000000 11.280862 144.446426 -2.907596 0.731382 -1.309872 0.000002 -5.374382 35.128616 -0.443885 -0.843906 -4.256789 0.000003 -33.815289 241.900635 -0.000000 -0.000000 0.000000 32.172600 -110.007042 103.953735 -0.000000 -0.000000 0.000000 -32.625198 -110.007034 103.962646 -0.000000 -0.000000 -0.000000 69.790291 11.520035 120.819336 7.222585 -2.278894 -21.038892 -31.062177 76.441845 36.135133 -0.003657 -0.012776 -32.694111 24.901873 3.851875 -15.027094 87.101921 53.394688 -0.191169 -4.714816 31.182744 16.736031 -0.999323 29.048402 3.051682 -0.105081 6.703536 1.536185 -0.000002 0.000003 -0.000000 104.340271 29.666088 -0.662858 -4.995799 35.827457 10.294710 -0.190315 16.992534 2.068499 0.030896 12.411839 1.219059 0.000001 -0.000001 0.000001 116.450096 0.000034 -0.000095 -1.872990 17.923776 9.188451 -1.143251 27.030284 3.851662 -0.255694 15.962618 1.912328 0.000000 0.000001 -0.000001 114.299797 -34.524834 -0.470069 1.512506 -0.581646 4.060514 -0.487795 17.006920 2.591657 -0.033711 4.056480 0.198170 -0.000004 0.000002 -0.000003 27.695587 -23.022171 -32.867218 32.271616 -23.769355 10.906292 30.385689 -17.550373 -17.536022 -7.142549 13.680647 11.220419 6.185001 -2.239244 -20.002887 -0.000002 0.000003 -0.000002 -69.078384 10.946226 120.819740 -0.326297 -5.453184 5.601232 8.363717 -72.527149 -8.309170 -0.003833 0.012962 33.397108 26.873581 -3.246366 6.508253 -26.220524 -23.595592 -31.879086 14.735991 17.329324 -8.358323 -29.154949 -16.839561 -16.825771 7.073710 13.072405 -5.834950 -29.892405 -17.265495 -17.251265 -12.607893 -8.963065 7.797568 0.000000 0.000002 0.000002 -110.723457 -33.243309 0.390590 -0.787813 -10.971509 1.170950 -1.070043 -26.712363 -3.789801 -0.352652 -17.447662 -0.613328 -0.000002 -0.000002 -0.000000 -114.966042 0.000004 -0.000184 -2.686553 -23.433868 -8.134467 -2.224124 -37.909179 -5.525075 -1.027194 -31.043220 -3.576893 0.000000 -0.000001 0.000003 -106.183739 30.576889 0.867736 -6.242601 -40.661247 -11.426055 -0.430835 -23.830573 -2.831722 -0.208035 -20.269619 -0.220907 -0.000001 -0.000003 -0.000003 -88.638062 55.841232 -0.038088 -7.803779 -44.715459 -14.393237 -3.364224 -48.939422 -6.580579 -2.823783 -43.248269 -3.558623 -0.000002 0.000003 -0.000001 -112.362762 -5.201178 -53.494453 -7.098641 -8.979195 -13.112504 16.244265 2.331574 1.140531 -9.699160 4.718649 -2.419711 -2.706981 -0.000015 -0.000006 -0.000000 -0.000000 0.000000 111.449074 -5.201124 -53.494568 -28.772892 -0.046618 -1.218001 57.295896 -6.658772 4.001439 0.031728 3.227824 0.598849 11.908858 -153.147446 -105.511009 -2.460678 2.014097 0.057913 -0.000003 -0.000000 0.000001 
10.429192 12.110189 939.411316 1.144823 2.360864 6.049984 0.000030 9.332271 96.731674 1.750612 -2.064350 0.300947 1.189323 0.010957 -0.070746 -3.311520 0.539993 -0.061373 0.000002 11.280858 144.446350 -3.097579 1.090769 -1.251862 0.000001 -5.374387 35.128834 0.091786 -0.959723 -4.499639 -0.000001 -33.815311 241.900513 0.000000 -0.000000 -0.000000 32.172600 -110.007050 103.953613 0.000000 -0.000000 -0.000000 -32.625198 -110.007042 103.962524 0.000000 -0.000000 -0.000000 69.790291 11.520018 120.819695 7.438288 -0.233982 -19.869825 -40.603074 73.718942 49.356569 -0.003498 -0.012529 -32.035086 35.389485 15.024067 -11.519700 87.101883 53.394688 -0.191311 -4.711206 31.153845 16.889067 -1.001518 29.079640 3.055865 -0.105732 6.734813 1.539398 0.000001 0.000001 -0.000002 104.340233 29.666096 -0.662827 -5.143614 36.397187 10.606789 -0.188526 16.927063 2.061464 0.031692 12.346018 1.212411 -0.000001 -0.000001 -0.000001 116.450089 0.000011 0.000086 -1.956617 18.463663 10.021501 -1.141570 27.008675 3.848721 -0.255197 15.946660 1.910596 -0.000000 0.000005 -0.000002 114.299843 -34.524845 -0.470091 2.684686 1.309129 4.353960 -0.493725 17.132018 2.606011 -0.034617 4.181573 0.210863 -0.000000 0.000001 -0.000002 27.695555 -23.022184 -32.867111 32.518111 -27.220372 12.494018 30.385868 -17.550446 -17.536051 1.469029 14.512176 12.030546 5.610538 -1.739462 -24.198945 -0.000001 0.000001 -0.000002 -69.078400 10.946216 120.819756 -0.353462 -3.843388 6.397168 5.496905 -72.670549 -5.395069 -0.003952 0.013112 33.865673 26.377140 -3.107778 5.173816 -26.220652 -23.595604 -31.879368 14.679185 17.023620 -7.625763 -29.154966 -16.839527 -16.825836 6.504308 13.122907 -6.145759 -29.892424 -17.265518 -17.251339 -12.643240 -8.939826 8.024444 -0.000002 0.000001 -0.000000 -110.723526 -33.243332 0.390786 -0.805368 -11.271515 1.498159 -1.064477 -26.637173 -3.779708 -0.350152 -17.372315 -0.604889 0.000001 -0.000003 0.000001 -114.966103 0.000019 -0.000293 -2.773007 -24.031677 -7.422673 -2.225565 -37.920695 -5.527122 -1.027699 -31.050081 -3.577835 0.000000 -0.000000 0.000001 -106.183769 30.576881 0.867786 -6.340289 -41.012117 -11.487682 -0.434137 -23.906395 -2.840587 -0.210193 -20.346121 -0.229313 -0.000001 -0.000001 0.000004 -88.638168 55.841148 -0.038130 -7.949536 -45.243747 -14.326675 -3.352122 -48.875263 -6.564993 -2.814174 -43.184014 -3.545387 -0.000001 -0.000002 0.000005 -112.362785 -5.201170 -53.494232 -4.296520 -7.687147 -13.151530 16.555702 2.464226 2.267026 -13.216322 4.177321 0.262850 -2.410954 -0.000016 -0.000007 0.000000 -0.000000 0.000000 111.449074 -5.201055 -53.494495 -32.155803 1.668012 -1.067927 47.398538 -5.920535 4.936237 -0.810961 3.380444 0.742021 11.908871 -153.147446 -105.511024 -0.131232 0.000001 -0.000002 0.000003 0.000000 0.000001 
14.226266 11.533087 934.507263 2.106618 0.979848 3.242334 0.000031 9.332276 96.731583 1.392697 -1.511042 0.735670 1.075723 0.532811 0.807335 -3.411383 1.023794 0.838038 0.000001 11.280858 144.446381 -3.475573 1.491049 -1.039986 0.000002 -5.374386 35.128456 0.208548 -0.790996 -4.087416 -0.000003 -33.815300 241.900757 -0.000000 0.000000 0.000000 32.172596 -110.007050 103.953735 -0.000000 -0.000000 0.000000 -32.625202 -110.007057 103.962524 -0.000000 -0.000000 0.000000 69.790276 11.520002 120.819618 7.600167 2.030673 -16.965546 -44.194336 70.261924 56.726562 -0.003495 -0.012519 -32.026993 46.989366 24.552227 -9.684640 87.101929 53.394657 -0.191198 -4.192309 28.673998 15.518243 -1.016526 29.290081 3.084295 -0.110109 6.945588 1.561014 0.000000 0.000000 -0.000004 104.340393 29.666065 -0.662688 -4.501925 33.589883 10.065990 -0.189985 16.980499 2.067183 0.031047 12.399772 1.217843 -0.000001 -0.000002 -0.000004 116.450218 -0.000011 0.000221 -1.532602 15.410828 9.354944 -1.133798 26.908432 3.835209 -0.251986 15.845120 1.899619 0.000000 -0.000000 -0.000002 114.299835 -34.524834 -0.470011 4.219066 -1.079425 3.609904 -0.509794 17.466689 2.644498 -0.037207 4.516653 0.244880 0.000000 0.000002 -0.000001 27.695520 -23.022139 -32.867012 32.907988 -30.370433 13.891493 30.385740 -17.550451 -17.535982 1.548588 13.695434 15.956196 5.392026 -2.350236 -25.896123 0.000001 0.000003 0.000004 -69.078415 10.946217 120.819931 -0.356013 -2.221096 7.924400 6.661997 -72.984430 0.930030 -0.003979 0.013172 33.995665 24.614887 -3.464692 4.758748 -26.220661 -23.595535 -31.879097 14.642223 16.530530 -6.515823 -29.155037 -16.839476 -16.825880 5.949683 13.222757 -6.513872 -29.892517 -17.265566 -17.251436 -12.672188 -8.921064 8.210865 -0.000003 -0.000001 0.000003 -110.723404 -33.243324 0.390736 -0.858541 -11.858073 1.656119 -1.049662 -26.435730 -3.752783 -0.343457 -17.170585 -0.582330 -0.000003 0.000000 -0.000000 -114.966171 -0.000008 -0.000091 -2.874863 -24.718185 -6.734969 -2.226431 -37.927774 -5.528375 -1.027922 -31.052991 -3.578233 0.000001 -0.000001 -0.000000 -106.183929 30.576897 0.867898 -6.499389 -41.589794 -11.522421 -0.435553 -23.939104 -2.844402 -0.211151 -20.379577 -0.232983 -0.000001 0.000001 -0.000003 -88.638237 55.841202 -0.038010 -8.104474 -45.813979 -14.178193 -3.336984 -48.794585 -6.545453 -2.802130 -43.103203 -3.528795 -0.000001 -0.000000 -0.000003 -112.362785 -5.201168 -53.494450 -1.046794 -5.920525 -13.522911 16.348657 2.520263 5.656494 -16.718170 4.076271 0.634549 -2.392257 -0.000015 -0.000006 0.000000 0.000000 -0.000000 111.449089 -5.201141 -53.494560 -34.266714 2.536491 -0.024671 35.552938 -4.999779 5.067586 -0.707752 2.287879 0.556499 11.908859 -153.147446 -105.510986 -0.230125 -0.000000 0.000003 -0.000000 0.000000 -0.000000 
17.747152 9.267473 928.104370 2.545992 -0.094419 0.556609 0.000030 9.332275 96.731667 1.120049 -1.358769 1.151452 1.291441 0.954171 1.553851 -3.179290 1.404496 1.612001 0.000001 11.280855 144.446320 -4.099991 2.261781 -0.690022 -0.000009 -5.374398 35.128792 0.014942 -0.447145 -3.611705 -0.000001 -33.815300 241.900757 -0.000000 0.000000 -0.000000 32.172596 -110.007050 103.953735 -0.000000 -0.000000 0.000000 -32.625198 -110.007042 103.962646 -0.000000 -0.000000 0.000000 69.790276 11.520016 120.819687 7.625981 3.873699 -14.024244 -42.963423 68.492700 58.382497 -0.003137 -0.011941 -30.359289 55.686484 29.101657 -11.990516 87.101685 53.394588 -0.191186 -3.624443 25.725786 13.899073 -1.035809 29.557562 3.120556 -0.115794 7.213554 1.588585 0.000000 0.000002 -0.000001 104.340218 29.666050 -0.662855 -3.712525 29.755999 9.342588 -0.193880 17.121230 2.082288 0.029358 12.540802 1.232099 0.000000 -0.000000 -0.000003 116.450081 -0.000072 0.000081 -0.998853 11.260172 7.923461 -1.128768 26.843367 3.826431 -0.249776 15.774537 1.892005 0.000000 0.000001 -0.000002 114.299782 -34.524925 -0.470138 5.882317 -4.469990 2.602477 -0.522853 17.734473 2.675432 -0.039418 4.785434 0.272221 -0.000001 0.000002 0.000001 27.695391 -23.022215 -32.867268 33.205262 -32.732988 14.658114 30.385939 -17.550455 -17.536001 -5.688386 11.254545 21.870131 5.543059 -3.581206 -24.547203 0.000002 0.000001 0.000003 -69.078423 10.946211 120.819717 -0.449336 0.225253 9.988281 10.139958 -73.950793 8.640983 -0.004011 0.013233 34.234028 22.283975 -3.957038 5.581482 -26.220812 -23.595551 -31.879251 14.350885 15.955686 -4.635190 -29.155138 -16.839523 -16.825850 5.370228 13.267099 -7.174232 -29.892349 -17.265442 -17.251404 -12.700940 -8.903161 8.396482 -0.000002 -0.000001 0.000001 -110.723610 -33.243355 0.390691 -1.005175 -13.125036 1.641432 -1.041413 -26.322895 -3.737742 -0.339741 -17.057578 -0.569729 -0.000002 0.000000 -0.000003 -114.966255 0.000027 -0.000123 -3.085090 -26.027662 -6.120124 -2.225571 -37.920821 -5.527149 -1.027075 -31.041533 -3.576658 -0.000002 0.000001 0.000001 -106.184052 30.576912 0.867859 -6.823581 -42.750308 -11.504993 -0.432699 -23.873463 -2.836727 -0.209279 -20.313211 -0.225697 0.000002 -0.000003 -0.000001 -88.638451 55.841217 -0.037954 -8.432003 -46.773159 -13.946707 -3.300716 -48.599904 -6.498607 -2.773204 -42.907665 -3.488853 0.000002 -0.000002 0.000000 -112.362793 -5.201170 -53.494335 3.180188 -4.201268 -14.482294 15.093227 2.333827 9.178744 -19.274399 3.962283 0.694750 -2.994259 -0.000019 -0.000010 0.000000 0.000000 0.000000 111.449066 -5.201122 -53.494453 -35.769916 2.449875 1.403809 24.539961 -4.000587 4.543072 -1.035656 1.393606 0.229749 11.908848 -153.147415 -105.511024 -1.826014 -0.000002 -0.000018 -0.000001 -0.000000 -0.000000 
20.785542 4.937176 920.032898 2.458093 -0.315405 -1.676087 0.000036 9.332276 96.731789 0.840448 -2.001555 1.725753 1.722907 1.357617 2.004596 -2.726930 1.774897 2.100641 0.000004 11.280863 144.446426 -4.771999 2.848505 -0.410002 0.000000 -5.374389 35.128548 -0.473749 -0.059431 -3.190100 -0.000004 -33.815308 241.900513 0.000000 -0.000000 -0.000000 32.172592 -110.007034 103.953491 0.000000 0.000000 -0.000000 -32.625206 -110.007050 103.962524 0.000000 -0.000000 -0.000000 69.790283 11.520015 120.819481 7.564766 5.044069 -11.553680 -39.313544 68.350352 56.385390 -0.002331 -0.010442 -26.230592 58.072447 27.843230 -16.137572 87.101608 53.394657 -0.191352 -3.607282 25.621269 13.946924 -1.040219 29.618268 3.128801 -0.117099 7.274363 1.594830 -0.000001 0.000001 0.000001 104.340103 29.666111 -0.662748 -3.641666 29.364472 9.351788 -0.196093 17.201138 2.090881 0.028379 12.620882 1.240175 0.000000 -0.000000 -0.000004 116.449944 -0.000023 -0.000043 -0.948257 10.849681 7.707508 -1.135118 26.925581 3.837508 -0.252341 15.856294 1.900836 0.000000 -0.000000 -0.000003 114.299706 -34.524857 -0.470149 7.090366 -3.149829 2.312408 -0.522353 17.724524 2.674273 -0.039340 4.776241 0.271282 -0.000000 0.000002 -0.000002 27.695494 -23.022196 -32.867146 33.155436 -34.143935 14.449250 30.385851 -17.550476 -17.536064 -8.346385 10.241122 24.840819 5.679780 -3.924848 -23.460945 -0.000002 0.000001 -0.000002 -69.078407 10.946214 120.819862 -0.572224 2.049203 11.582122 18.056575 -73.632622 19.587953 -0.004280 0.013585 35.297782 19.782062 -4.237154 7.291773 -26.220802 -23.595520 -31.879141 13.661066 15.190329 -1.502173 -29.155016 -16.839468 -16.825806 4.550407 13.256705 -8.427010 -29.892475 -17.265539 -17.251446 -12.740830 -8.877686 8.656066 -0.000001 -0.000003 -0.000002 -110.723557 -33.243279 0.390683 -1.299188 -15.612346 1.739341 -1.048560 -26.420763 -3.750784 -0.342961 -17.155589 -0.580660 -0.000001 0.000002 -0.000004 -114.966133 0.000053 -0.000048 -3.539872 -28.639449 -5.581387 -2.248562 -38.103781 -5.559599 -1.040184 -31.220696 -3.601335 -0.000001 -0.000003 -0.000001 -106.183853 30.576958 0.867745 -7.441728 -44.822143 -11.504941 -0.431613 -23.848620 -2.833837 -0.208518 -20.286411 -0.222757 -0.000001 0.000002 0.000001 -88.638367 55.841263 -0.037932 -9.199234 -48.842324 -13.703986 -3.275248 -48.461978 -6.465629 -2.752388 -42.765840 -3.460056 -0.000002 -0.000000 -0.000003 -112.362778 -5.201157 -53.494431 7.911501 -3.009941 -15.726499 13.856992 2.034809 9.854155 -20.474556 2.792923 3.127790 -5.338952 -0.000032 -0.000020 -0.000000 -0.000000 -0.000000 111.449066 -5.201145 -53.494492 -37.282632 1.504887 2.393926 17.622423 -3.073291 3.949262 -3.360655 1.102635 -0.033712 11.908847 -153.147491 -105.511017 -4.451733 -0.000006 -0.000038 0.000002 -0.000000 0.000000 
24.967808 -1.661660 907.862793 2.371252 -0.194528 -3.509487 0.000030 9.332288 96.731522 0.156818 -2.925594 2.400046 2.174934 1.740671 2.328545 -2.254085 2.115249 2.472827 0.000002 11.280863 144.446365 -5.171537 3.033506 -0.305805 0.000001 -5.374389 35.128605 -1.053810 0.495464 -2.932871 -0.000001 -33.815277 241.900391 -0.000000 -0.000000 -0.000000 32.172600 -110.007011 103.953491 0.000000 -0.000000 -0.000000 -32.625198 -110.007011 103.962402 0.000000 -0.000000 0.000000 69.790276 11.520003 120.819504 7.505039 5.364046 -10.206644 -38.442354 68.340564 58.386335 -0.002097 -0.009940 -24.837624 52.036496 24.628200 -16.697168 87.101845 53.394672 -0.191222 -3.707320 26.154428 14.292170 -1.038155 29.589851 3.124950 -0.116486 7.245876 1.591893 0.000000 0.000000 -0.000003 104.340149 29.666088 -0.662988 -3.758236 29.947531 9.522653 -0.195929 17.195167 2.090225 0.028451 12.615399 1.239633 -0.000001 0.000000 0.000001 116.449974 0.000015 -0.000128 -1.015972 11.399520 7.925239 -1.139727 26.984730 3.845513 -0.254244 15.916726 1.907356 0.000001 0.000000 -0.000002 114.299675 -34.524799 -0.470149 8.045707 -0.756005 2.114166 -0.518547 17.646560 2.665272 -0.038698 4.698686 0.263399 0.000000 -0.000001 0.000001 27.695415 -23.022131 -32.867233 32.773129 -34.895495 13.467845 30.385895 -17.550463 -17.535957 -7.744550 10.375710 25.958300 5.786207 -3.347968 -22.724005 -0.000001 -0.000002 0.000001 -69.078400 10.946224 120.819756 -0.634362 2.815242 12.321178 24.983828 -71.661068 27.885159 -0.005098 0.014709 38.648943 17.876902 -3.801926 8.578234 -26.220554 -23.595552 -31.879234 12.691764 14.476422 1.974342 -29.154951 -16.839542 -16.825798 3.872212 13.120702 -10.178899 -29.892471 -17.265512 -17.251411 -12.794916 -8.838695 9.014057 0.000000 0.000002 -0.000005 -110.723305 -33.243301 0.390754 -1.689394 -18.772452 1.992485 -1.079907 -26.844911 -3.807627 -0.357146 -17.580395 -0.628201 0.000001 0.000000 -0.000001 -114.966003 -0.000038 -0.000150 -4.171247 -31.938678 -5.173282 -2.302082 -38.523889 -5.634840 -1.071145 -31.638338 -3.659182 -0.000000 0.000003 0.000001 -106.183769 30.576881 0.867762 -8.218879 -47.177623 -11.621843 -0.436841 -23.968828 -2.847892 -0.211843 -20.403727 -0.235631 -0.000001 -0.000004 -0.000002 -88.638191 55.841141 -0.038097 -10.342580 -51.575400 -13.675328 -3.269626 -48.431359 -6.458315 -2.746663 -42.726689 -3.452115 -0.000002 0.000001 -0.000002 -112.362778 -5.201146 -53.494442 12.138149 -2.133285 -16.553436 13.597846 2.476938 9.822881 -21.352121 1.117851 5.574803 -9.637794 -0.000055 -0.000030 -0.000000 0.000000 0.000000 111.449081 -5.201082 -53.494568 -39.667666 0.312394 2.981785 17.572531 -2.295734 3.688660 -7.894708 1.998432 -0.123468 11.908849 -153.147430 -105.511009 -6.972819 -0.000008 -0.000061 -0.000004 0.000000 -0.000001 
28.644220 -5.542627 897.122253 2.365465 -0.526717 -4.560396 0.000023 9.332269 96.731575 0.137747 -2.707062 2.472045 2.060857 1.753481 2.655695 -2.359820 2.103370 2.801070 0.000003 11.280844 144.446487 -5.137343 2.974274 -0.282826 -0.000003 -5.374403 35.128582 -0.892717 1.085395 -2.657929 -0.000013 -33.815289 241.900757 -0.000000 -0.000000 -0.000000 32.172585 -110.007027 103.953491 -0.000001 -0.000001 0.000000 -32.625206 -110.007019 103.962402 -0.000001 -0.000000 0.000000 69.790276 11.520011 120.819611 7.456804 5.468680 -9.261046 -41.409258 67.237707 65.148844 -0.002332 -0.010418 -26.191183 44.530969 22.105345 -14.680771 87.101990 53.394680 -0.191334 -3.899078 27.158804 14.928893 -1.031681 29.500584 3.112801 -0.114572 7.156465 1.582712 -0.000000 0.000000 0.000001 104.340401 29.666134 -0.662822 -4.015037 31.236542 9.765109 -0.193138 17.094959 2.079469 0.029653 12.516024 1.229574 -0.000001 -0.000001 0.000002 116.450089 0.000025 0.000004 -1.201137 12.871988 8.549674 -1.146149 27.067498 3.856704 -0.256985 16.002966 1.916709 0.000001 -0.000001 -0.000001 114.299812 -34.524780 -0.470095 8.739406 2.371344 2.014829 -0.508690 17.444023 2.641894 -0.037024 4.494130 0.242602 0.000003 -0.000001 -0.000001 27.695591 -23.022112 -32.867054 32.207064 -35.164099 12.096498 30.385815 -17.550455 -17.536089 -4.842859 11.551526 25.734155 5.816646 -2.174381 -22.596812 -0.000001 -0.000000 0.000005 -69.078407 10.946220 120.820023 -0.612233 2.667875 12.370059 27.862063 -69.183642 31.605570 -0.006061 0.015844 42.266778 17.070931 -2.041818 9.280934 -26.220707 -23.595568 -31.879297 11.802579 14.208658 4.174126 -29.154949 -16.839518 -16.825811 3.617412 12.884235 -11.526308 -29.892523 -17.265572 -17.251261 -12.846494 -8.802793 9.357600 -0.000003 0.000004 -0.000004 -110.723412 -33.243309 0.390714 -1.978614 -20.975706 2.148799 -1.105247 -27.182087 -3.853125 -0.368722 -17.918108 -0.666152 -0.000001 0.000002 -0.000002 -114.966125 0.000027 -0.000097 -4.668242 -34.323668 -4.902898 -2.346612 -38.867560 -5.697065 -1.096973 -31.979994 -3.706936 0.000002 -0.000002 0.000003 -106.183876 30.576897 0.867780 -8.823057 -48.840753 -11.800683 -0.445218 -24.159499 -2.870215 -0.217249 -20.592071 -0.256329 -0.000001 -0.000000 -0.000002 -88.638390 55.841248 -0.038037 -11.230944 -53.453668 -13.899912 -3.261583 -48.387669 -6.447909 -2.739307 -42.676204 -3.441906 -0.000002 -0.000000 0.000000 -112.362778 -5.201166 -53.494366 14.986321 -1.483545 -16.519588 14.859252 4.031927 9.310542 -20.581264 -0.555826 5.096833 -14.303760 -0.000080 -0.000045 -0.000000 -0.000000 0.000001 111.449043 -5.201180 -53.494465 -40.704075 -0.063951 3.203340 19.723035 -1.751188 3.921469 -8.787811 4.158460 -0.047186 11.908853 -153.147446 -105.510986 -9.677349 -0.000008 -0.000085 0.000001 -0.000000 -0.000001 
32.285519 -8.002953 898.378662 1.927967 -1.651431 -4.568653 0.000026 9.332283 96.731552 0.501815 -1.303493 1.984450 1.706671 1.519977 2.779551 -2.732989 1.874625 2.881345 0.000003 11.280848 144.446365 -4.775885 2.695866 -0.341195 0.000005 -5.374403 35.128796 -0.205743 1.485033 -2.430556 -0.000015 -33.815292 241.900635 -0.000000 -0.000000 -0.000000 32.172588 -110.007027 103.953613 -0.000000 -0.000001 -0.000000 -32.625214 -110.007042 103.962524 -0.000000 -0.000001 -0.000000 69.790329 11.520003 120.819534 7.441124 5.456788 -8.993871 -46.968421 64.574576 71.785821 -0.002024 -0.009792 -24.532955 40.915456 20.937455 -12.270001 87.101692 53.394619 -0.191294 -3.962705 27.474818 15.232222 -1.032053 29.505693 3.113508 -0.114677 7.161588 1.583240 -0.000001 0.000000 -0.000001 104.340057 29.666080 -0.662964 -4.100192 31.653269 9.843924 -0.190570 17.001866 2.069478 0.030771 12.423314 1.220205 -0.000001 0.000000 -0.000001 116.449989 0.000004 0.000087 -1.276031 13.435846 8.976919 -1.147259 27.081891 3.858630 -0.257554 16.020730 1.918626 0.000000 0.000000 0.000000 114.299660 -34.524872 -0.470238 9.385930 3.916940 1.860865 -0.504625 17.359354 2.632138 -0.036344 4.409317 0.233998 -0.000001 -0.000001 0.000001 27.695404 -23.022148 -32.867268 31.637867 -35.123206 10.733304 30.385715 -17.550428 -17.536104 -2.661485 12.628004 25.590584 5.871024 -1.266055 -22.267679 0.000003 0.000001 0.000005 -69.078423 10.946215 120.819809 -0.561529 2.125354 11.797013 32.645569 -65.111592 37.986732 -0.006018 0.015775 42.114403 14.606855 2.037276 10.518020 -26.220657 -23.595528 -31.879196 11.433504 14.664114 3.796761 -29.154985 -16.839474 -16.825960 4.015356 12.551291 -11.782562 -29.892420 -17.265539 -17.251343 -12.857417 -8.797038 9.429331 0.000003 0.000001 0.000003 -110.723511 -33.243229 0.390732 -2.008239 -21.189919 2.127916 -1.112334 -27.275524 -3.865788 -0.371959 -18.011680 -0.676697 -0.000001 0.000001 -0.000002 -114.966080 0.000051 0.000005 -4.724111 -34.616645 -4.593610 -2.361301 -38.979726 -5.717535 -1.105386 -32.090018 -3.722390 0.000002 -0.000000 0.000001 -106.183922 30.576935 0.867851 -8.918438 -49.084717 -11.863609 -0.450148 -24.270521 -2.883258 -0.220456 -20.702771 -0.268519 -0.000000 0.000003 -0.000000 -88.638123 55.841255 -0.037950 -11.280921 -53.539903 -14.069007 -3.257648 -48.365980 -6.442768 -2.736331 -42.655669 -3.437740 0.000000 -0.000000 0.000002 -112.362801 -5.201170 -53.494469 17.030513 -0.618156 -15.964469 16.683755 6.196396 8.765534 -14.098050 -2.336174 2.781085 -22.606750 0.231951 0.016356 0.000000 0.000000 0.000000 111.449074 -5.201060 -53.494446 -37.698379 1.652664 3.928645 18.545215 -1.472362 4.189433 -2.260222 1.532586 -0.639583 11.908869 -153.147537 -105.511063 -12.245357 -0.000010 -0.000108 -0.000006 -0.000001 0.000000 
35.878544 -13.590034 900.049744 1.072089 -2.515631 -4.450138 0.000025 9.332278 96.731453 0.914166 -0.315630 1.706268 1.412202 1.397809 2.714895 -3.048392 1.771347 2.785333 -0.000001 11.280863 144.446228 -4.507208 2.371335 -0.424950 -0.000005 -5.374374 35.128685 0.589191 1.280772 -2.308108 -0.000002 -33.815292 241.900757 -0.000000 -0.000000 -0.000000 32.172596 -110.007034 103.953735 0.000000 -0.000000 -0.000000 -32.625202 -110.007050 103.962524 0.000000 -0.000000 -0.000000 69.790298 11.520043 120.819801 7.453026 5.546363 -9.312828 -50.056496 62.097744 75.989072 -0.002128 -0.010032 -25.145512 38.598205 20.889346 -8.137476 87.101845 53.394688 -0.191298 -3.809332 26.673260 14.796700 -1.038609 29.596104 3.125812 -0.116626 7.252171 1.592538 -0.000001 -0.000000 0.000000 104.340302 29.666157 -0.662837 -3.892402 30.626783 9.651926 -0.189752 16.971867 2.066268 0.031137 12.392852 1.217143 0.000003 -0.000001 -0.000001 116.449982 0.000025 -0.000021 -1.146800 12.413175 8.749645 -1.137882 26.961156 3.842317 -0.253702 15.899360 1.905487 -0.000001 0.000000 -0.000003 114.299698 -34.524776 -0.469955 9.968018 3.171443 1.635027 -0.508720 17.444756 2.641972 -0.037015 4.494809 0.242687 0.000001 0.000002 -0.000001 27.695410 -23.021994 -32.867065 31.241572 -34.952793 9.773554 30.385817 -17.550413 -17.536036 -3.316459 12.857819 26.479761 5.941838 -1.079755 -21.766327 0.000002 -0.000000 0.000001 -69.078407 10.946219 120.819817 -0.535769 1.636503 10.746083 35.913213 -62.255214 41.870289 -0.006198 0.015976 42.751124 12.696205 5.618188 10.670855 -26.220747 -23.595613 -31.879070 11.712507 15.379083 1.745905 -29.154968 -16.839527 -16.825821 4.768561 12.294606 -11.283981 -29.892473 -17.265469 -17.251442 -12.832124 -8.816532 9.258721 -0.000002 -0.000001 -0.000002 -110.723396 -33.243294 0.390658 -1.843638 -19.955764 1.995828 -1.116590 -27.331513 -3.873397 -0.373919 -18.067773 -0.683006 -0.000001 -0.000000 0.000001 -114.966171 0.000011 -0.000034 -4.422864 -33.267884 -4.260473 -2.348562 -38.882488 -5.699799 -1.097789 -31.990584 -3.708425 -0.000002 0.000001 0.000003 -106.183945 30.576950 0.867780 -8.581392 -48.175144 -11.798878 -0.447950 -24.221009 -2.877439 -0.219078 -20.654687 -0.263224 -0.000001 -0.000001 0.000001 -88.638306 55.841179 -0.038088 -10.749821 -52.427671 -14.136836 -3.243151 -48.286825 -6.423984 -2.725664 -42.582224 -3.422950 -0.000001 0.000001 0.000001 -112.362785 -5.201191 -53.494495 16.357383 1.060533 -14.728471 23.055201 7.462230 7.955025 -2.969893 -5.187947 0.367088 -38.609898 0.771814 0.298097 0.000000 -0.000000 -0.000000 111.449051 -5.201135 -53.494526 -33.977541 3.562387 4.479933 18.658443 -1.229472 4.567645 4.700927 -2.494486 -0.604504 11.908842 -153.147446 -105.511002 -12.975252 -0.000009 -0.000113 0.000000 -0.000000 0.000000 
40.940563 -17.517321 902.438904 0.454118 -3.757635 -4.281403 0.000032 9.332274 96.731575 1.612299 0.425672 1.461918 1.040191 1.585161 2.401620 -3.436772 1.997496 2.455652 -0.000000 11.280855 144.446472 -4.468469 2.304638 -0.422503 -0.000007 -5.374364 35.128571 0.760840 0.978113 -2.216774 -0.000006 -33.815289 241.900757 -0.000001 -0.000000 0.000000 32.172592 -110.007034 103.953735 -0.000000 0.000000 0.000000 -32.625214 -110.007034 103.962646 -0.000000 -0.000000 0.000000 69.790306 11.520019 120.819595 7.455648 6.862505 -9.390127 -47.036316 61.977560 73.285184 -0.002482 -0.010736 -27.014453 37.479324 21.730973 -4.953752 87.101791 53.394665 -0.191194 -3.774359 26.490102 14.594093 -1.034329 29.537269 3.117789 -0.115356 7.193227 1.586489 0.000002 -0.000001 0.000001 104.340187 29.666126 -0.662815 -3.832638 30.329151 9.584250 -0.187771 16.899608 2.058534 0.032000 12.320124 1.209800 -0.000000 0.000001 -0.000001 116.450005 0.000021 0.000021 -1.141695 12.384695 8.562597 -1.131063 26.873098 3.830447 -0.250883 15.809895 1.895797 0.000001 -0.000002 -0.000000 114.299774 -34.524796 -0.470083 10.205460 3.394648 1.484436 -0.511219 17.496132 2.647890 -0.037444 4.546458 0.247925 0.000000 0.000002 0.000003 27.695576 -23.022129 -32.867077 31.040802 -34.739623 9.268351 30.385725 -17.550404 -17.535858 -4.197613 13.162787 27.253502 5.970823 -0.903136 -21.571399 0.000003 0.000003 0.000006 -69.078400 10.946217 120.819893 -0.505796 1.172356 10.186601 37.374700 -61.768659 42.623925 -0.006893 0.016688 45.183481 12.466141 7.984555 10.229748 -26.220646 -23.595404 -31.879158 12.716380 14.918865 0.885120 -29.155008 -16.839455 -16.825783 4.578036 12.724052 -10.647215 -29.892384 -17.265530 -17.251467 -12.818052 -8.826338 9.164920 0.000001 0.000001 -0.000003 -110.723450 -33.243195 0.390741 -1.644595 -18.481517 1.978905 -1.107718 -27.214627 -3.857557 -0.369843 -17.950704 -0.669827 0.000000 -0.000000 0.000001 -114.966110 0.000084 -0.000081 -4.113856 -31.811910 -3.975646 -2.319167 -38.656593 -5.658798 -1.080549 -31.763030 -3.676576 -0.000000 -0.000001 -0.000004 -106.183754 30.576981 0.867777 -8.206274 -47.118442 -11.727168 -0.439951 -24.039448 -2.856160 -0.213854 -20.474517 -0.243410 -0.000001 0.000001 -0.000003 -88.638138 55.841339 -0.037964 -10.305240 -51.445576 -14.181915 -3.245729 -48.300943 -6.427331 -2.728287 -42.600327 -3.426600 -0.000000 -0.000000 0.000000 -112.362785 -5.201153 -53.494473 11.741634 4.552481 -11.682513 34.835416 7.502981 6.331328 10.498148 -11.949095 0.286024 -44.266012 3.627995 2.668380 -0.000003 -0.000000 0.000001 111.449066 -5.201133 -53.494541 -30.593780 5.236942 4.419342 19.014777 -0.998615 4.800022 10.449259 -1.016162 -0.375994 11.908861 -153.147476 -105.511047 -11.187090 -0.000009 -0.000098 0.000000 0.000000 -0.000000 
46.225124 -18.461096 908.494446 -0.044267 -5.085669 -3.581779 0.000032 9.332265 96.731491 2.414634 1.038870 1.022470 1.019789 1.768550 1.832102 -3.470503 2.219495 1.858054 0.000004 11.280855 144.446304 -4.736982 2.637355 -0.263535 -0.000003 -5.374393 35.128712 0.037714 0.628140 -2.051912 0.000010 -33.815289 241.900513 -0.000001 -0.000000 0.000000 32.172611 -110.007019 103.953247 -0.000000 0.000000 -0.000000 -32.625191 -110.007034 103.962280 -0.000000 0.000000 0.000000 69.790298 11.520012 120.819443 7.491620 8.491982 -9.850510 -41.294344 63.653033 65.538664 -0.002636 -0.011036 -27.854883 38.976266 21.647011 -4.088218 87.101883 53.394588 -0.191283 -4.145883 28.442824 15.156241 -1.016040 29.283203 3.083360 -0.109960 6.938721 1.560340 -0.000001 -0.000003 0.000004 104.340431 29.666012 -0.662954 -4.241208 32.387429 9.773478 -0.186621 16.857588 2.054024 0.032499 12.277610 1.205511 0.000000 -0.000002 -0.000001 116.450241 -0.000065 0.000006 -1.474608 15.006136 8.578341 -1.128621 26.841392 3.826170 -0.249803 15.775645 1.892103 -0.000002 -0.000001 -0.000000 114.299873 -34.524895 -0.469985 9.915953 7.572381 1.373603 -0.500548 17.274800 2.622408 -0.035692 4.324634 0.225400 0.000001 -0.000002 -0.000002 27.695501 -23.022266 -32.867153 30.899854 -34.426732 8.885020 30.385757 -17.550444 -17.535921 -5.377585 13.901444 28.013983 6.267478 0.001251 -19.600266 -0.000001 -0.000002 0.000001 -69.078430 10.946223 120.819740 -0.486568 0.965090 10.093286 37.974493 -62.705679 42.029484 -0.007604 0.017379 47.580112 13.182487 9.762927 10.872533 -26.220699 -23.595558 -31.879181 14.130642 14.228206 -0.375332 -29.154888 -16.839455 -16.825954 4.285503 13.396583 -9.517212 -29.892445 -17.265522 -17.251335 -12.793934 -8.842403 9.005237 -0.000003 -0.000001 -0.000002 -110.723450 -33.243362 0.390592 -1.368785 -16.358947 1.993879 -1.085301 -26.917227 -3.817344 -0.359609 -17.652812 -0.636338 0.000000 0.000001 -0.000004 -114.966125 -0.000095 -0.000064 -3.691932 -29.680143 -3.760812 -2.285894 -38.397688 -5.612148 -1.061021 -31.502748 -3.640339 0.000002 -0.000000 -0.000000 -106.183945 30.576836 0.867947 -7.688063 -45.567774 -11.651335 -0.435052 -23.927717 -2.843077 -0.210726 -20.364593 -0.231332 0.000001 0.000003 -0.000002 -88.638298 55.841202 -0.038002 -9.621860 -49.829085 -14.279979 -3.244645 -48.295014 -6.425927 -2.728102 -42.599053 -3.426357 -0.000001 0.000000 -0.000000 -112.362793 -5.201168 -53.494419 5.258563 7.408639 -8.891558 47.002695 6.721005 5.064939 22.461147 -13.173287 1.680569 -14.849591 1.821642 0.489384 0.000001 0.000000 -0.000001 111.449051 -5.201135 -53.494602 -27.349346 7.616563 4.832013 21.257888 -0.788925 4.772641 5.226274 -3.235423 -0.607279 11.908855 -153.147385 -105.511017 -1.850359 -0.000003 -0.000018 0.000000 0.000000 -0.000000 
50.158009 -16.007706 915.760376 -0.374838 -6.227553 -3.077458 0.000024 9.332270 96.731667 3.120519 1.452623 0.684839 1.240820 1.970681 1.348554 -3.251302 2.444748 1.358680 -0.000003 11.280851 144.446487 -5.125966 3.068149 -0.088070 0.000006 -5.374379 35.128609 -0.872932 0.248002 -1.980409 -0.000007 -33.815281 241.900635 -0.000000 0.000000 -0.000000 32.172588 -110.007027 103.953613 -0.000001 0.000000 -0.000000 -32.625210 -110.007027 103.962524 -0.000001 -0.000000 -0.000000 69.790268 11.520006 120.819534 7.538843 8.715350 -10.469539 -34.695899 66.581948 55.204908 -0.002660 -0.011085 -27.973282 38.915146 18.683262 -4.672940 87.101913 53.394634 -0.191319 -4.561913 30.492297 15.778075 -0.999712 29.054026 3.052424 -0.105189 6.709125 1.536762 0.000002 -0.000002 0.000004 104.340164 29.666058 -0.662796 -4.690084 34.525141 9.936358 -0.185815 16.827781 2.050837 0.032853 12.247200 1.202439 -0.000001 0.000002 0.000001 116.450150 -0.000050 -0.000025 -1.821968 17.603325 8.538957 -1.127582 26.828119 3.824387 -0.249305 15.759565 1.890355 0.000001 -0.000002 0.000002 114.299828 -34.524887 -0.470016 9.511291 11.707974 1.308891 -0.488094 17.013704 2.592441 -0.033747 4.063254 0.198855 0.000001 -0.000004 -0.000000 27.695484 -23.022173 -32.867138 30.805133 -34.016316 8.589088 30.385937 -17.550468 -17.536158 -7.204894 14.410208 28.897496 6.703284 1.000869 -16.844862 0.000004 -0.000002 0.000008 -69.078415 10.946221 120.819824 -0.478981 0.866890 9.951686 38.193205 -64.855877 40.592265 -0.008164 0.017870 49.363591 15.210618 13.251762 14.914937 -26.220638 -23.595596 -31.879221 15.529028 13.915198 -2.642461 -29.154991 -16.839495 -16.825861 4.479286 13.923147 -8.057074 -29.892368 -17.265509 -17.251467 -12.750130 -8.871694 8.716920 -0.000001 -0.000001 -0.000001 -110.723526 -33.243286 0.390744 -1.057880 -13.787726 1.921091 -1.062477 -26.610142 -3.776085 -0.349238 -17.345252 -0.601851 -0.000000 0.000000 -0.000002 -114.965942 0.000027 -0.000023 -3.180023 -26.869785 -3.700579 -2.258916 -38.185781 -5.574205 -1.045270 -31.289793 -3.610853 -0.000000 0.000001 0.000001 -106.183815 30.576942 0.867804 -7.038148 -43.464786 -11.593419 -0.436042 -23.950265 -2.845707 -0.211433 -20.389061 -0.234021 0.000001 0.000001 -0.000002 -88.638260 55.841232 -0.038017 -8.795035 -47.690607 -14.436856 -3.278637 -48.480420 -6.470018 -2.755634 -42.788024 -3.464550 -0.000004 -0.000000 -0.000003 -112.362823 -5.201168 -53.494339 -2.977819 9.575813 -7.343702 56.903986 5.880871 4.781114 18.045992 -9.959994 -1.140448 -2.769828 -0.609131 -0.019899 0.000001 -0.000001 -0.000001 111.449028 -5.201119 -53.494579 -23.499143 9.387993 5.147835 21.737507 -0.548575 4.283428 1.105492 -3.684727 -0.792714 11.908857 -153.147430 -105.511017 -1.700975 -0.000002 -0.000014 -0.000000 -0.000000 0.000000 
52.286888 -12.858448 924.947876 -0.466409 -6.651227 -3.151082 0.000026 9.332261 96.731438 3.680815 1.326159 0.531688 1.365197 2.097851 1.039792 -3.121125 2.584992 1.050365 -0.000001 11.280867 144.446564 -5.111499 3.389037 0.093653 0.000003 -5.374387 35.128681 -1.563242 0.298293 -1.664262 0.000005 -33.815292 241.900513 -0.000000 0.000000 0.000000 32.172604 -110.007027 103.953369 -0.000000 -0.000000 0.000000 -32.625187 -110.007034 103.962280 0.000000 -0.000000 0.000000 69.790283 11.520007 120.819695 7.626571 8.359735 -11.716181 -24.142521 69.490543 40.409329 -0.002572 -0.010888 -27.412879 40.313761 13.860411 -5.114746 87.101921 53.394695 -0.191207 -4.692849 31.110719 15.922470 -0.998190 29.032334 3.049528 -0.104743 6.687417 1.534529 -0.000000 -0.000001 -0.000003 104.340195 29.666088 -0.662834 -4.802902 35.079572 9.837470 -0.186354 16.847966 2.052988 0.032615 12.266899 1.204434 -0.000002 -0.000000 -0.000001 116.450142 -0.000027 0.000028 -1.905856 18.221901 8.318943 -1.129058 26.847194 3.826947 -0.249838 15.776622 1.892212 0.000000 0.000001 0.000000 114.299820 -34.524826 -0.469959 9.249030 12.745544 1.287546 -0.482429 16.893387 2.578643 -0.032898 3.942800 0.186658 -0.000002 0.000002 0.000002 27.695461 -23.022156 -32.867191 30.753319 -33.517282 8.373100 30.385708 -17.550526 -17.535931 -9.395822 14.133062 29.731694 7.138350 1.249694 -14.273588 0.000000 -0.000002 0.000004 -69.078415 10.946215 120.819687 -0.479353 0.872945 9.842922 38.277401 -67.621093 38.772426 -0.008144 0.017838 49.259024 17.626041 18.446003 21.971402 -26.220661 -23.595493 -31.879282 16.612680 13.861734 -4.996312 -29.154978 -16.839516 -16.825768 4.953870 14.280025 -6.708120 -29.892294 -17.265533 -17.251282 -12.701547 -8.902384 8.400859 0.000002 0.000001 -0.000003 -110.723457 -33.243290 0.390654 -0.802410 -11.528098 1.796088 -1.052184 -26.470162 -3.757393 -0.344593 -17.205060 -0.586186 0.000001 -0.000002 0.000000 -114.966141 0.000088 -0.000070 -2.751228 -24.313262 -3.779205 -2.242882 -38.058787 -5.551609 -1.035922 -31.162530 -3.593309 -0.000001 0.000001 0.000002 -106.183884 30.576973 0.867662 -6.444523 -41.375087 -11.567680 -0.437752 -23.989463 -2.850289 -0.212573 -20.429471 -0.238448 -0.000000 -0.000001 0.000002 -88.638199 55.841255 -0.038183 -8.156673 -45.795151 -14.602620 -3.338374 -48.802023 -6.547283 -2.803227 -43.110658 -3.530310 -0.000001 -0.000000 -0.000000 -112.362816 -5.201180 -53.494400 -11.528054 9.825050 -5.904170 62.539500 5.484609 5.747640 12.634119 -6.945759 -7.446038 -4.770027 -4.738705 -0.317404 -0.000000 -0.000002 -0.000002 111.449036 -5.201132 -53.494495 -18.699847 10.174619 5.165484 19.982318 -0.289413 3.325780 -1.859229 -4.210047 -0.959884 11.908871 -153.147476 -105.511024 -2.318116 -0.000005 -0.000021 -0.000000 0.000000 0.000000 
52.119663 -9.862682 933.955627 -0.484362 -6.363672 -3.418402 0.000036 9.332272 96.731567 4.063656 1.010803 0.311964 1.439938 1.878560 0.581936 -3.045022 2.376271 0.588833 0.000002 11.280844 144.446320 -4.789723 3.475554 0.341002 -0.000005 -5.374390 35.128391 -1.880582 0.827489 -0.603993 -0.000006 -33.815285 241.900635 -0.000000 -0.000000 0.000000 32.172596 -110.007027 103.953369 -0.000000 -0.000000 0.000000 -32.625198 -110.007034 103.962402 -0.000000 -0.000000 0.000000 69.790321 11.520019 120.819519 7.733728 8.128884 -13.258036 -12.638124 70.510604 24.492326 -0.002382 -0.010541 -26.479358 39.594228 8.148566 -5.744647 87.101776 53.394703 -0.191335 -4.691335 31.108161 15.793342 -0.996896 29.014077 3.047061 -0.104367 6.669161 1.532673 0.000001 -0.000000 0.000000 104.340294 29.666149 -0.662742 -4.707249 34.726099 9.531031 -0.187554 16.892082 2.057713 0.032104 12.310591 1.208837 -0.000002 -0.000002 -0.000001 116.449974 0.000031 0.000001 -1.848040 17.838712 7.977065 -1.132082 26.886365 3.832238 -0.251032 15.814632 1.896310 0.000002 0.000001 0.000005 114.299706 -34.524818 -0.470068 8.999520 12.201247 1.310166 -0.478790 16.816264 2.569825 -0.032369 3.865621 0.178813 0.000001 0.000003 -0.000000 27.695566 -23.022175 -32.867073 30.740400 -32.938403 8.229418 30.385824 -17.550556 -17.536005 -10.049385 14.201381 29.630996 7.390156 -1.091775 -12.765801 -0.000000 -0.000002 0.000005 -69.078407 10.946219 120.819649 -0.451258 0.627315 9.943974 36.860523 -70.006563 35.606845 -0.007507 0.017286 47.230727 20.238696 20.822870 26.562891 -26.220644 -23.595470 -31.879261 17.372612 13.848729 -6.771148 -29.154989 -16.839439 -16.825804 5.316682 14.589656 -5.546608 -29.892471 -17.265497 -17.251360 -12.653997 -8.932817 8.093755 0.000001 0.000001 -0.000003 -110.723434 -33.243259 0.390705 -0.617261 -9.771858 1.728198 -1.043640 -26.353336 -3.741811 -0.340749 -17.088078 -0.573137 0.000001 0.000000 -0.000002 -114.966072 0.000050 -0.000033 -2.436003 -22.299724 -3.944553 -2.234641 -37.993060 -5.539948 -1.031140 -31.097216 -3.584300 0.000001 -0.000000 -0.000000 -106.183716 30.576996 0.867782 -5.995831 -39.680356 -11.546096 -0.437277 -23.978228 -2.849006 -0.212258 -20.418705 -0.237269 0.000001 0.000000 0.000000 -88.638268 55.841263 -0.038077 -7.747324 -44.371549 -14.688723 -3.357998 -48.906364 -6.572542 -2.818843 -43.215157 -3.551803 -0.000001 -0.000000 0.000002 -112.362785 -5.201175 -53.494373 -18.877150 8.227748 -4.247514 62.587168 5.194598 7.588438 8.096044 -5.120985 -11.729495 -14.884712 -6.685728 -1.707513 -0.000001 -0.000001 0.000000 111.449074 -5.201078 -53.494400 -14.038901 9.873479 5.753420 18.329395 -0.018790 1.456048 -4.139264 -4.450452 -0.987462 11.908862 -153.147415 -105.511009 -3.282282 -0.000002 -0.000028 0.000000 -0.000000 0.000000 
50.442135 -7.157844 938.673462 0.042696 -5.821281 -2.715365 0.000023 9.332273 96.731491 3.888161 0.715063 -0.144627 1.370510 1.536274 -0.310580 -3.120839 2.049672 -0.301172 0.000004 11.280832 144.446472 -4.228805 3.354073 0.557497 0.000007 -5.374389 35.128674 -1.871126 1.282589 0.652881 -0.000004 -33.815315 241.900635 -0.000000 -0.000000 0.000000 32.172607 -110.007065 103.953369 -0.000000 -0.000000 -0.000000 -32.625195 -110.007050 103.962280 0.000000 0.000000 -0.000000 69.790291 11.519999 120.819382 7.784957 7.397258 -14.425517 -0.684259 70.041486 9.425105 -0.002611 -0.010978 -27.673473 37.433566 1.646211 -5.592862 87.101791 53.394695 -0.191308 -4.470153 30.065096 15.259831 -0.995769 28.998487 3.044967 -0.104052 6.653497 1.531062 0.000001 -0.000003 -0.000003 104.340164 29.666126 -0.662759 -4.363244 33.187763 9.152787 -0.186319 16.846952 2.052894 0.032635 12.265437 1.204285 -0.000002 0.000001 -0.000002 116.450096 -0.000008 0.000062 -1.598247 16.037071 7.604410 -1.131296 26.875990 3.830843 -0.250686 15.803707 1.895131 -0.000001 -0.000001 -0.000001 114.299728 -34.524826 -0.470002 8.850601 9.298495 1.420187 -0.479402 16.829347 2.571332 -0.032456 3.878858 0.180144 0.000001 0.000000 -0.000000 27.695606 -23.022142 -32.867115 30.761830 -32.288367 8.150247 30.385845 -17.550457 -17.535828 -10.214264 14.159860 29.114825 7.275642 -4.314644 -13.210940 0.000001 0.000001 0.000003 -69.078400 10.946216 120.819748 -0.395229 -0.002029 9.937226 32.476330 -72.297511 29.069176 -0.006782 0.016591 44.821153 24.214023 20.791226 27.491711 -26.220650 -23.595581 -31.879129 17.941273 13.665639 -7.655919 -29.154936 -16.839462 -16.825750 5.484966 14.888084 -4.709795 -29.892464 -17.265472 -17.251305 -12.607508 -8.963350 7.795133 0.000000 -0.000004 0.000000 -110.723495 -33.243317 0.390632 -0.510954 -8.682053 1.600100 -1.044613 -26.366798 -3.743599 -0.341182 -17.101537 -0.574624 -0.000001 -0.000001 0.000001 -114.966049 0.000000 -0.000145 -2.229466 -20.904141 -4.197315 -2.230494 -37.960173 -5.534109 -1.028807 -31.065377 -3.579930 0.000001 -0.000002 -0.000000 -106.183891 30.576836 0.867738 -5.727004 -38.615762 -11.527028 -0.435326 -23.933814 -2.843794 -0.211001 -20.374343 -0.232408 0.000001 0.000000 -0.000004 -88.638092 55.841240 -0.038065 -7.512358 -43.545762 -14.688218 -3.368215 -48.960589 -6.585738 -2.826986 -43.269494 -3.563028 0.000001 0.000001 0.000001 -112.362793 -5.201179 -53.494408 -24.933824 6.307220 -2.902440 57.837475 4.684589 8.928561 3.856960 -4.556690 -13.890052 -20.961876 -3.071104 -1.179227 0.000001 -0.000000 0.000000 111.449066 -5.201074 -53.494476 -10.385187 9.189195 6.611014 17.652376 0.222664 -1.026934 -6.768978 -4.751533 -1.107381 11.908851 -153.147446 -105.511009 -3.878169 -0.000008 -0.000033 0.000000 -0.000000 -0.000000 
47.561859 -6.153850 941.154419 0.726426 -4.787897 -1.135074 0.000036 9.332273 96.731529 3.292045 0.146380 -0.638382 1.437203 1.153589 -1.373438 -3.067502 1.699478 -1.352632 -0.000004 11.280859 144.446457 -3.806584 3.147362 0.668188 -0.000011 -5.374381 35.128864 -1.544040 1.395359 1.530052 -0.000007 -33.815304 241.900635 0.000000 0.000000 0.000000 32.172596 -110.007050 103.953491 0.000000 0.000000 0.000000 -32.625202 -110.007042 103.962402 0.000000 0.000000 0.000000 69.790283 11.520016 120.819695 7.815127 5.677422 -16.515990 6.566753 68.759200 -0.254597 -0.003035 -0.011726 -29.874428 34.287177 -3.378463 -6.474454 87.101616 53.394650 -0.191161 -4.178494 28.631624 14.571625 -1.003307 29.104706 3.059271 -0.106240 6.759918 1.541969 0.000002 0.000001 -0.000000 104.340141 29.666096 -0.662858 -4.035163 31.595325 8.949720 -0.186297 16.845753 2.052756 0.032646 12.264719 1.204218 0.000001 0.000001 -0.000000 116.449951 -0.000002 0.000033 -1.340816 14.089495 7.254699 -1.125301 26.798317 3.820373 -0.248241 15.725460 1.886676 0.000002 0.000000 -0.000001 114.299637 -34.524872 -0.470106 8.698132 5.849171 1.598846 -0.481030 16.863821 2.575284 -0.032718 3.913938 0.183696 -0.000000 0.000000 0.000000 27.695400 -23.022148 -32.867081 30.812722 -31.575784 8.127665 30.385941 -17.550518 -17.535799 -10.333991 13.863884 28.422260 7.166512 -7.092449 -13.600552 -0.000001 -0.000002 0.000006 -69.078423 10.946215 120.819794 -0.348457 -0.919047 9.289641 24.829121 -74.116643 19.145833 -0.005925 0.015667 41.764851 28.827800 20.203532 26.579377 -26.220783 -23.595594 -31.879156 18.352433 13.320618 -7.682590 -29.155022 -16.839514 -16.825792 5.579715 15.113674 -4.342617 -29.892445 -17.265528 -17.251362 -12.575316 -8.984816 7.589471 0.000000 -0.000001 -0.000003 -110.723503 -33.243298 0.390798 -0.473172 -8.258686 1.323103 -1.058302 -26.553549 -3.768527 -0.347367 -17.288600 -0.595508 -0.000001 -0.000001 -0.000002 -114.966103 -0.000004 -0.000051 -2.116280 -20.089799 -4.535308 -2.226884 -37.931309 -5.528997 -1.026816 -31.037947 -3.576147 -0.000001 0.000001 -0.000004 -106.183716 30.576897 0.867810 -5.632022 -38.235133 -11.497068 -0.432532 -23.868892 -2.836218 -0.209154 -20.309335 -0.225262 0.000002 0.000002 -0.000001 -88.638344 55.841217 -0.037858 -7.441442 -43.290921 -14.686636 -3.383293 -49.039969 -6.605108 -2.838918 -43.348984 -3.579429 0.000001 -0.000000 -0.000000 -112.362755 -5.201174 -53.494305 -29.886668 4.436868 -2.865139 49.449200 4.482362 9.342838 2.355384 -5.240611 -16.133329 -16.296927 -0.287963 -0.085908 -0.000002 -0.000000 -0.000000 111.449043 -5.201064 -53.494469 -6.852233 7.820388 7.514254 17.149574 0.432012 -4.147305 -9.422357 -5.051711 -1.271141 11.908865 -153.147415 -105.511009 -4.665735 -0.000005 -0.000040 -0.000000 -0.000000 0.000000 
43.108437 -6.134242 941.639587 1.162560 -3.224926 0.838593 0.000040 9.332266 96.731285 2.698189 -0.613462 -1.084864 1.668219 0.752437 -2.400356 -2.859212 1.347970 -2.374663 -0.000007 11.280855 144.446228 -3.761958 2.629225 0.558271 -0.000000 -5.374393 35.128582 -1.406697 1.263758 1.849340 -0.000003 -33.815311 241.900635 -0.000000 -0.000000 -0.000000 32.172600 -110.007050 103.953735 -0.000000 -0.000000 0.000000 -32.625195 -110.007050 103.962646 0.000000 -0.000000 0.000000 69.790283 11.520018 120.819221 7.718035 3.104709 -18.787974 8.982832 67.372050 -4.905637 -0.003711 -0.012871 -32.937371 30.392262 -5.487479 -8.894689 87.101715 53.394627 -0.191333 -4.095786 28.213114 14.338051 -1.004669 29.123927 3.061852 -0.106640 6.779187 1.543957 0.000003 0.000001 -0.000000 104.340393 29.666088 -0.662843 -3.916370 30.981260 8.929695 -0.186322 16.846578 2.052836 0.032624 12.266003 1.204329 0.000001 -0.000000 0.000002 116.450005 -0.000034 0.000137 -1.259472 13.454366 7.160038 -1.125120 26.795997 3.820076 -0.248171 15.722966 1.886408 -0.000000 0.000001 -0.000001 114.299736 -34.524872 -0.469951 8.307209 4.065741 1.784603 -0.481083 16.864895 2.575409 -0.032715 3.915372 0.183858 0.000000 -0.000000 0.000000 27.695551 -23.022104 -32.866890 30.888236 -30.809190 8.153823 30.385822 -17.550514 -17.536102 -10.528329 13.722939 27.689874 7.033012 -7.793894 -14.293152 0.000001 -0.000000 0.000005 -69.078407 10.946232 120.819649 -0.316605 -2.588033 7.766285 15.796802 -74.481519 7.599448 -0.005024 0.014608 38.384806 33.105503 18.667013 24.507048 -26.220676 -23.595589 -31.879253 18.663403 13.320352 -8.300200 -29.154915 -16.839529 -16.825872 5.699620 15.344358 -3.541023 -29.892370 -17.265469 -17.251259 -12.530036 -9.015555 7.301768 -0.000002 0.000001 -0.000001 -110.723404 -33.243301 0.390793 -0.328375 -6.817569 1.196418 -1.069896 -26.710483 -3.789555 -0.352604 -17.445775 -0.613114 0.000001 0.000002 0.000000 -114.966133 0.000038 -0.000126 -1.865557 -18.299170 -4.784893 -2.224337 -37.911146 -5.525419 -1.025489 -31.019591 -3.573635 -0.000000 0.000002 -0.000005 -106.183846 30.576889 0.867908 -5.357519 -37.107834 -11.401009 -0.427198 -23.746667 -2.821937 -0.205718 -20.186983 -0.211865 -0.000003 0.000001 0.000001 -88.638229 55.841240 -0.038079 -7.119183 -42.074361 -14.739132 -3.378524 -49.014821 -6.598968 -2.835131 -43.323784 -3.574209 -0.000001 -0.000000 -0.000001 -112.362770 -5.201160 -53.494541 -34.257066 2.676170 -4.349848 38.740331 4.576818 9.082926 3.056347 -6.019231 -17.018746 -1.379626 -0.000011 0.000001 -0.000001 0.000000 0.000000 111.449059 -5.201066 -53.494648 -3.432838 5.409706 8.499001 17.263359 0.580844 -6.920492 -12.073771 -5.004033 -3.219853 11.908886 -153.147415 -105.511009 -5.839497 -0.000007 -0.000051 0.000000 0.000000 -0.000000 
39.066734 -7.303562 937.997192 1.186077 -1.979723 2.684134 0.000024 9.332274 96.731567 2.209801 -0.877757 -1.482926 2.160783 0.248088 -3.147613 -2.368577 0.898819 -3.148463 0.000004 11.280848 144.446518 -4.176725 2.205539 0.381459 0.000002 -5.374385 35.128708 -1.565309 0.995590 1.704155 0.000003 -33.815300 241.900513 -0.000000 0.000000 -0.000000 32.172607 -110.007042 103.953369 -0.000000 0.000000 -0.000000 -32.625195 -110.007034 103.962280 0.000000 -0.000000 -0.000000 69.790298 11.520014 120.819527 7.501333 0.346273 -21.198221 7.841458 66.016183 -5.437131 -0.004732 -0.014295 -37.252033 24.368216 -6.036613 -10.837996 87.101791 53.394672 -0.191236 -4.106779 28.279575 14.200573 -1.000608 29.066799 3.054133 -0.105460 6.721940 1.538083 0.000001 -0.000000 -0.000001 104.340218 29.666088 -0.662741 -3.914697 30.934456 9.049496 -0.186359 16.847809 2.052988 0.032607 12.267571 1.204508 -0.000001 0.000002 -0.000000 116.449921 0.000010 0.000065 -1.259708 13.467380 7.042611 -1.126252 26.810816 3.822041 -0.248618 15.737314 1.887959 -0.000002 -0.000001 -0.000000 114.299683 -34.524834 -0.470010 7.736983 3.338646 1.997907 -0.478990 16.820164 2.570293 -0.032396 3.870471 0.179298 -0.000001 -0.000002 -0.000001 27.695404 -23.022102 -32.867142 30.983528 -29.997146 8.220858 30.385794 -17.550484 -17.535784 -10.763834 13.657890 26.911249 6.851121 -7.924218 -15.329899 0.000001 0.000005 0.000000 -69.078384 10.946210 120.819778 -0.374882 -4.365527 5.625979 8.186726 -73.758571 -3.265175 -0.004390 0.013780 35.818612 36.336203 15.588418 21.752385 -26.220715 -23.595579 -31.879148 19.227438 13.208554 -9.278001 -29.155069 -16.839397 -16.825920 5.637638 15.788493 -2.200581 -29.892462 -17.265533 -17.251465 -12.475450 -9.053306 6.956918 0.000002 -0.000001 -0.000002 -110.723557 -33.243347 0.390672 -0.111174 -4.763590 1.347473 -1.098286 -27.090221 -3.840685 -0.365547 -17.826104 -0.655798 -0.000001 -0.000000 0.000002 -114.966225 -0.000004 -0.000202 -1.561630 -16.047936 -4.912989 -2.219487 -37.872347 -5.518567 -1.022819 -30.982875 -3.568607 -0.000000 -0.000002 -0.000000 -106.184021 30.576889 0.867750 -4.935871 -35.315442 -11.149063 -0.427762 -23.760133 -2.823512 -0.206089 -20.200325 -0.213307 -0.000000 -0.000002 0.000001 -88.638420 55.841209 -0.038014 -6.735570 -40.690490 -14.550074 -3.425227 -49.259652 -6.658961 -2.872206 -43.568961 -3.625076 -0.000001 -0.000000 0.000001 -112.362793 -5.201186 -53.494370 -37.161420 1.934815 -7.530161 26.643598 4.590464 9.357703 2.575514 -5.896297 -13.706122 -2.721904 -0.000022 -0.000012 0.000000 0.000000 0.000001 111.449059 -5.201068 -53.494545 0.064045 2.970247 9.454735 17.942630 0.714253 -6.977975 -14.913679 -4.221158 -7.346389 11.908844 -153.147446 -105.511017 -7.600465 -0.000008 -0.000066 0.000000 -0.000000 0.000000 
34.929047 -10.854725 928.596985 0.828022 -1.544999 4.596370 0.000028 9.332278 96.731316 1.765219 -0.160806 -2.142077 2.815981 -0.410878 -3.676444 -1.686334 0.297775 -3.726768 -0.000001 11.280874 144.446289 -4.927267 1.934083 0.207676 -0.000000 -5.374385 35.128689 -2.133928 0.825444 1.357514 0.000006 -33.815304 241.900635 0.000000 0.000000 -0.000000 32.172607 -110.007042 103.953491 -0.000000 -0.000000 0.000000 -32.625191 -110.007057 103.962524 0.000000 -0.000000 0.000000 69.790291 11.519999 120.819511 7.099436 -2.917708 -23.817935 3.717334 65.676292 -2.289271 -0.006282 -0.016111 -43.052253 20.840435 -9.207795 -9.979517 87.101837 53.394657 -0.191460 -4.286488 29.194196 14.329513 -0.997092 29.017174 3.047462 -0.104440 6.672224 1.532992 0.000003 -0.000002 -0.000001 104.340279 29.666042 -0.663064 -4.090964 31.832155 9.108403 -0.189034 16.946323 2.063525 0.031464 12.365900 1.214427 -0.000001 -0.000000 -0.000000 116.449989 -0.000057 0.000023 -1.398656 14.563655 7.002644 -1.128670 26.841759 3.826213 -0.249570 15.767616 1.891243 -0.000004 0.000001 0.000000 114.299606 -34.524864 -0.470151 6.950992 4.213437 2.238486 -0.474299 16.720042 2.558853 -0.031728 3.769852 0.169087 0.000002 -0.000001 -0.000001 27.695480 -23.022223 -32.867260 31.093917 -29.148140 8.321056 30.385790 -17.550373 -17.535978 -10.948359 13.378749 26.014994 6.728129 -7.025135 -16.148278 0.000002 -0.000004 0.000004 -69.078392 10.946222 120.819611 -0.507025 -5.642634 3.555598 2.025485 -72.838619 -13.931839 -0.004119 0.013362 34.663599 38.075463 10.926218 18.725795 -26.220686 -23.595592 -31.879253 19.733224 13.251832 -10.613577 -29.154964 -16.839506 -16.825867 5.637450 16.168371 -0.877222 -29.892431 -17.265478 -17.251324 -12.430257 -9.085173 6.673255 0.000000 -0.000001 0.000001 -110.723373 -33.243305 0.390623 0.090033 -2.930645 1.726705 -1.109632 -27.240241 -3.861011 -0.370737 -17.976373 -0.672711 0.000001 0.000003 -0.000002 -114.966164 0.000042 -0.000151 -1.308931 -14.085392 -5.001835 -2.215519 -37.840327 -5.512912 -1.020666 -30.953212 -3.564542 -0.000002 -0.000003 -0.000001 -106.183975 30.576920 0.867916 -4.547500 -33.550822 -10.955523 -0.433704 -23.896805 -2.839474 -0.209941 -20.336823 -0.228275 -0.000003 0.000001 -0.000004 -88.638054 55.841179 -0.038048 -6.414123 -39.488243 -14.363671 -3.477470 -49.529390 -6.725807 -2.913595 -43.839105 -3.681608 -0.000001 -0.000000 0.000001 -112.362793 -5.201190 -53.494499 -38.118381 2.047958 -10.573587 17.706280 4.295154 8.938625 -1.090450 -7.223518 -11.659115 -5.225251 -0.000034 -0.000014 -0.000000 -0.000001 -0.000001 111.449059 -5.201066 -53.494663 3.479942 1.306108 10.234047 19.697501 0.452359 -6.942866 -17.774143 -3.252969 -10.326180 11.908854 -153.147415 -105.511024 -10.366479 -0.000010 -0.000092 0.000000 0.000000 0.000000 
31.088631 -12.805941 911.136353 0.718366 -1.482738 6.624343 0.000027 9.332271 96.731499 1.328008 0.730875 -2.853190 3.271863 -0.944715 -4.198546 -1.195174 -0.169482 -4.288183 0.000001 11.280859 144.446228 -5.555151 1.729017 0.064288 0.000002 -5.374397 35.128540 -2.471363 0.671014 1.052317 -0.000001 -33.815311 241.900757 -0.000001 -0.000000 0.000000 32.172604 -110.007065 103.953613 -0.000000 -0.000000 -0.000000 -32.625195 -110.007065 103.962402 -0.000000 -0.000000 0.000000 69.790298 11.520002 120.819519 6.786062 -4.862675 -25.446807 -2.952450 64.234214 5.110347 -0.008774 -0.018438 -51.376335 17.651961 -8.391033 -9.777081 87.101730 53.394718 -0.191279 -4.555413 30.515902 14.490878 -0.997713 29.025763 3.048639 -0.104612 6.680841 1.533862 -0.000001 0.000002 0.000000 104.340179 29.666126 -0.662865 -4.351000 33.122121 9.172502 -0.195899 17.192860 2.089981 0.028495 12.612152 1.239287 0.000002 -0.000001 0.000002 116.450035 0.000038 0.000100 -1.599324 16.109174 6.909339 -1.138562 26.970021 3.843504 -0.253570 15.895319 1.905052 0.000001 0.000001 -0.000001 114.299637 -34.524796 -0.470048 6.058325 5.807202 2.490211 -0.476356 16.764209 2.563897 -0.032020 3.813827 0.173549 0.000000 0.000002 0.000001 27.695360 -23.022152 -32.867119 31.215030 -28.270705 8.446752 30.385845 -17.550446 -17.535873 -11.043094 12.749656 24.972408 6.604030 -5.908011 -17.008385 0.000003 0.000003 0.000002 -69.078415 10.946218 120.819672 -0.658421 -6.000550 1.844238 -2.290866 -72.502745 -24.262763 -0.004458 0.013863 36.054707 37.922026 4.959577 14.837386 -26.220512 -23.595604 -31.879194 20.047840 13.486321 -12.094330 -29.154854 -16.839464 -16.825609 5.855876 16.346927 -0.022663 -29.892345 -17.265549 -17.251680 -12.401396 -9.105671 6.492996 -0.000003 -0.000001 0.000001 -110.723328 -33.243324 0.390613 0.233800 -1.673166 2.129173 -1.117310 -27.340938 -3.874680 -0.374248 -18.077207 -0.684083 0.000002 -0.000001 0.000002 -114.965950 -0.000006 -0.000091 -1.159308 -12.871428 -5.132114 -2.219129 -37.869297 -5.518042 -1.022960 -30.984955 -3.568879 -0.000001 0.000001 -0.000001 -106.183777 30.576889 0.867683 -4.285619 -32.284938 -10.882091 -0.442828 -24.105134 -2.863844 -0.215889 -20.544934 -0.251152 0.000001 0.000002 0.000000 -88.638168 55.841187 -0.037988 -6.208587 -38.678695 -14.266163 -3.571342 -50.004242 -6.845364 -2.987851 -44.314687 -3.782446 0.000001 -0.000002 -0.000003 -112.362801 -5.201165 -53.494484 -40.439071 3.161418 -11.893408 19.409673 3.678818 7.249726 -8.105467 -7.570446 -7.990458 -5.710064 -0.000028 -0.000019 0.000003 -0.000001 0.000000 111.449059 -5.201059 -53.494579 5.342766 0.242982 10.204793 23.839775 -0.719175 -6.928012 -21.476900 -2.131108 -11.681002 11.908876 -153.147430 -105.511002 -13.718207 -0.000010 -0.000118 -0.000000 0.000000 0.000000 
27.524948 -14.015902 900.043091 0.362741 -1.235774 8.127062 0.000030 9.332264 96.731453 1.485940 0.744057 -3.044047 3.172509 -1.011346 -4.591711 -1.283006 -0.221268 -4.682190 0.000001 11.280848 144.446472 -5.533572 1.657059 -0.047108 0.000003 -5.374385 35.128647 -2.269791 0.397784 0.620268 0.000003 -33.815311 241.900635 -0.000000 -0.000000 0.000001 32.172600 -110.007050 103.953491 -0.000000 -0.000000 -0.000000 -32.625195 -110.007050 103.962402 -0.000000 -0.000000 0.000000 69.790298 11.520014 120.819351 6.707140 -5.230771 -26.117533 -7.633044 62.179850 10.471357 -0.010793 -0.019874 -57.341651 16.592281 -10.630113 -9.967900 87.101761 53.394581 -0.191198 -4.599631 30.715217 14.357790 -1.000466 29.064968 3.053891 -0.105428 6.720141 1.537902 0.000002 -0.000000 -0.000003 104.340096 29.666042 -0.662920 -4.365179 33.201229 9.142391 -0.198595 17.289410 2.100387 0.027293 12.708756 1.249081 0.000001 -0.000001 0.000001 116.449997 -0.000050 -0.000047 -1.613170 16.225552 6.791065 -1.142057 27.015077 3.849586 -0.255000 15.940196 1.909895 -0.000001 -0.000001 0.000000 114.299736 -34.524857 -0.470081 5.398837 4.775444 2.695221 -0.475982 16.756264 2.562982 -0.031971 3.805969 0.172755 0.000001 0.000002 -0.000000 27.695440 -23.022137 -32.867153 31.342833 -27.373322 8.590444 30.385799 -17.550396 -17.535942 -11.234050 12.464559 24.013854 6.471819 -6.332639 -17.786912 -0.000000 -0.000000 0.000006 -69.078423 10.946232 120.819824 -0.781819 -6.172118 0.528842 -7.308696 -72.573656 -34.668090 -0.004401 0.013800 35.868161 36.516961 -0.059171 11.199699 -26.220646 -23.595589 -31.879147 20.188502 13.604376 -12.826390 -29.154964 -16.839437 -16.825937 6.052789 16.388810 0.204200 -29.892437 -17.265425 -17.251343 -12.388352 -9.114652 6.411966 0.000000 -0.000003 0.000000 -110.723396 -33.243332 0.390724 0.291938 -1.173405 2.301285 -1.119598 -27.370923 -3.878752 -0.375300 -18.107234 -0.687472 0.000002 0.000000 0.000000 -114.966057 0.000008 -0.000209 -1.105756 -12.400923 -5.396930 -2.223079 -37.900890 -5.523610 -1.025462 -31.019311 -3.573606 0.000000 -0.000000 0.000000 -106.183807 30.576920 0.867828 -4.196186 -31.830864 -10.889752 -0.446132 -24.179807 -2.872610 -0.218031 -20.619417 -0.259350 -0.000001 -0.000002 -0.000001 -88.638344 55.841209 -0.038007 -6.160664 -38.462131 -14.257960 -3.616744 -50.229498 -6.902906 -3.023712 -44.540330 -3.830907 0.000001 0.000003 0.000003 -112.362793 -5.201180 -53.494328 -40.361890 3.477408 -12.272089 23.519020 3.332391 4.965030 -14.326004 -8.375047 -5.591783 -7.209819 -0.000042 -0.000021 0.000005 -0.000000 -0.000001 111.449074 -5.201065 -53.494526 7.351455 -0.363023 9.707041 27.081405 -2.887239 -6.226294 -21.465666 -1.026379 -12.034600 11.908855 -153.147385 -105.510979 -19.200446 -0.000004 -0.000167 -0.000001 -0.000000 0.000000 
24.058100 -14.775200 897.638916 -0.100330 -0.555176 8.594417 0.000031 9.332272 96.731712 1.649487 -0.172241 -2.723046 2.816560 -0.725982 -4.769011 -1.666332 0.057976 -4.831691 -0.000000 11.280851 144.446426 -4.972053 1.726804 -0.069670 0.000003 -5.374382 35.128784 -1.686910 0.188154 0.334508 0.000005 -33.815289 241.900757 -0.000000 -0.000000 -0.000000 32.172600 -110.007027 103.953613 0.000000 -0.000000 -0.000000 -32.625195 -110.007034 103.962646 0.000000 -0.000000 -0.000000 69.790291 11.520014 120.819641 6.833523 -4.534159 -25.548181 -10.282554 60.412921 13.616336 -0.012031 -0.020646 -60.906901 17.116032 -10.631055 -12.233128 87.101921 53.394703 -0.191322 -4.508049 30.240147 13.824370 -1.016357 29.287814 3.083959 -0.110066 6.943344 1.560818 -0.000002 0.000000 0.000001 104.340408 29.666142 -0.662961 -4.208296 32.457701 9.018552 -0.205685 17.540021 2.127360 0.024104 12.959832 1.274484 0.000000 0.000000 -0.000000 116.450043 0.000023 -0.000025 -1.480408 15.261366 6.398341 -1.155930 27.193005 3.873682 -0.260654 16.118273 1.929187 -0.000001 0.000000 -0.000002 114.299759 -34.524815 -0.470112 4.896025 2.229992 2.652031 -0.479882 16.839377 2.572488 -0.032538 3.890530 0.181329 -0.000001 0.000002 0.000000 27.695442 -23.022100 -32.867058 31.473717 -26.464553 8.744673 30.385830 -17.550484 -17.535948 -12.614939 16.155079 24.360285 6.835293 -9.338157 -15.689974 0.000002 0.000003 0.000000 -69.078407 10.946222 120.820045 -0.851867 -6.211068 -0.205903 -12.975902 -72.821264 -44.194835 -0.004026 0.013281 34.313491 34.822292 -3.869359 7.455171 -26.220718 -23.595566 -31.879227 20.517122 13.689704 -13.907000 -29.154926 -16.839531 -16.825796 6.276029 16.570522 0.841680 -29.892475 -17.265514 -17.251307 -12.360524 -9.135416 6.238557 -0.000003 -0.000001 0.000001 -110.723465 -33.243309 0.390665 0.411627 -0.070748 2.594931 -1.125723 -27.451012 -3.889664 -0.378136 -18.187499 -0.696521 -0.000001 -0.000002 0.000002 -114.966187 0.000015 0.000004 -0.967330 -11.224619 -5.614088 -2.222208 -37.894221 -5.522419 -1.025173 -31.015302 -3.573039 -0.000000 -0.000000 -0.000002 -106.183838 30.576904 0.867708 -4.021973 -30.956057 -10.809579 -0.454300 -24.363406 -2.894192 -0.223392 -20.802793 -0.279524 0.000000 0.000001 -0.000001 -88.638153 55.841232 -0.037925 -6.001774 -37.805254 -14.228157 -3.671606 -50.497880 -6.972208 -3.066973 -44.809162 -3.889142 0.000002 -0.000001 -0.000001 -112.362778 -5.201159 -53.494331 -39.215422 1.807505 -12.161577 27.502892 3.370825 3.268527 -9.949473 -4.704108 -3.216847 -10.656824 -0.000066 -0.000037 -0.000006 0.000001 0.000000 111.449051 -5.201079 -53.494438 9.859119 -1.332978 11.359979 28.471519 -5.420487 -5.887144 -17.030325 -0.336080 -13.285331 11.908849 -153.147446 -105.511009 -22.330591 0.000001 -0.000193 0.000000 -0.000000 -0.000000 
19.803955 -16.524759 899.849487 -0.505574 0.160608 8.769224 0.000032 9.332275 96.731407 1.641729 -1.040482 -2.465390 2.373429 -0.442702 -4.884171 -2.141003 0.335748 -4.917144 -0.000002 11.280863 144.446396 -4.515794 1.864937 0.002017 0.000003 -5.374386 35.128696 -0.755075 0.076598 0.415213 -0.000001 -33.815323 241.900635 0.000000 -0.000000 -0.000000 32.172604 -110.007057 103.953491 0.000001 -0.000000 0.000000 -32.625198 -110.007057 103.962402 0.000001 -0.000000 0.000000 69.790283 11.520023 120.819672 6.957441 -3.977924 -24.107043 -12.301747 60.736385 16.324581 -0.012925 -0.021118 -63.336795 16.311702 -12.249917 -13.251423 87.101791 53.394711 -0.191420 -4.287939 29.097251 13.192510 -1.036604 29.568388 3.122014 -0.116024 7.224386 1.589679 0.000002 0.000000 -0.000002 104.340248 29.666103 -0.662952 -3.948443 31.155993 8.910858 -0.216027 17.895775 2.165778 0.019391 13.316041 1.310618 0.000001 -0.000001 -0.000000 116.450096 0.000038 -0.000051 -1.275516 13.703753 5.991544 -1.167563 27.340814 3.893775 -0.265424 16.266439 1.945271 0.000000 0.000002 -0.000000 114.299728 -34.524807 -0.470212 4.492613 -1.441849 2.470201 -0.486129 16.971920 2.587644 -0.033486 4.025673 0.195018 -0.000001 0.000001 -0.000001 27.695459 -23.022085 -32.867207 31.604457 -25.552955 8.902146 30.385817 -17.550392 -17.536072 -13.821072 18.929688 24.470937 6.662151 -18.020701 -15.005323 0.000002 0.000001 0.000006 -69.078407 10.946220 120.819786 -0.818693 -6.044978 0.128325 -17.190280 -73.457462 -50.854915 -0.003595 0.012610 32.400413 32.719451 -6.599132 3.606024 -26.220757 -23.595537 -31.879204 20.459494 14.361994 -15.394362 -29.154915 -16.839481 -16.825741 6.600816 16.586568 1.632217 -29.892551 -17.265528 -17.251427 -12.334254 -9.154728 6.075630 0.000000 -0.000001 -0.000001 -110.723549 -33.243317 0.390742 0.550749 1.229950 2.944578 -1.103789 -27.162880 -3.850532 -0.368061 -17.898859 -0.663985 0.000002 0.000002 -0.000001 -114.966217 0.000010 -0.000158 -0.824020 -9.987924 -5.754124 -2.220983 -37.884047 -5.520638 -1.024634 -31.007846 -3.572034 0.000000 -0.000000 -0.000001 -106.183792 30.576897 0.867728 -3.820485 -29.925364 -10.680182 -0.459188 -24.472182 -2.906997 -0.226595 -20.911512 -0.291542 0.000001 0.000002 -0.000001 -88.638351 55.841209 -0.038019 -5.767685 -36.883568 -14.013845 -3.759259 -50.918606 -7.082487 -3.135977 -45.230602 -3.981572 0.000002 -0.000004 -0.000002 -112.362785 -5.201144 -53.494297 -35.780427 0.032473 -12.214749 26.847133 3.252799 2.053332 -2.261085 -0.744464 -3.410800 -11.470581 -0.000066 -0.000035 -0.000000 0.000000 -0.000000 111.449066 -5.201051 -53.494354 10.975683 -2.475378 12.108905 30.818278 -6.973454 -6.323503 -7.611134 -1.292026 -12.963819 11.908868 -153.147385 -105.511017 -34.695059 -0.836056 -0.198884 0.000000 0.000000 0.000000 
15.032164 -18.710934 901.056824 -0.891748 1.202612 8.859350 0.000029 9.332281 96.731384 1.776473 -1.743869 -2.281103 1.924007 -0.558155 -4.693053 -2.622277 0.188162 -4.714385 -0.000005 11.280851 144.446304 -4.455283 2.136020 0.054381 -0.000004 -5.374377 35.128605 0.071967 0.336390 0.278528 0.000002 -33.815300 241.900635 0.000000 0.000000 0.000000 32.172600 -110.007034 103.953491 0.000000 0.000000 0.000000 -32.625198 -110.007027 103.962402 0.000000 0.000000 0.000000 69.790276 11.519995 120.819466 7.002180 -3.787297 -23.417379 -17.030363 62.341015 22.454206 -0.013737 -0.021505 -65.516138 15.554086 -10.327964 -16.172742 87.101738 53.394733 -0.191402 -4.243326 28.848277 13.150721 -1.039561 29.609287 3.127610 -0.116916 7.265383 1.593909 0.000000 -0.000000 -0.000001 104.340218 29.666134 -0.662921 -3.889361 30.842792 8.916500 -0.214200 17.833655 2.159064 0.020207 13.254177 1.304342 0.000001 0.000000 -0.000003 116.450027 0.000055 0.000114 -1.218868 13.245603 6.035106 -1.166937 27.333061 3.892692 -0.265175 16.258437 1.944425 0.000000 0.000002 0.000001 114.299721 -34.524788 -0.469971 3.899473 -3.423402 2.489064 -0.485499 16.958653 2.586120 -0.033395 4.012987 0.193756 -0.000001 -0.000000 0.000002 27.695467 -23.022076 -32.866840 31.732239 -24.647059 9.055565 30.385855 -17.550392 -17.536085 -13.649328 17.754571 23.302703 6.737614 -17.452976 -14.678799 -0.000001 0.000001 0.000007 -69.078430 10.946225 120.819717 -0.736328 -5.443912 1.000172 -19.036985 -74.496395 -54.207106 -0.003378 0.012249 31.410452 30.379380 -8.873236 0.185265 -26.220610 -23.595623 -31.879230 20.522697 14.191794 -15.128517 -29.154970 -16.839529 -16.825943 6.414627 16.657757 1.703190 -29.892540 -17.265486 -17.251268 -12.343164 -9.148094 6.130938 0.000002 0.000002 -0.000000 -110.723404 -33.243332 0.390714 0.516352 0.892555 2.855716 -1.084936 -26.912257 -3.816673 -0.359436 -17.647829 -0.635775 -0.000002 0.000003 -0.000002 -114.965981 0.000011 -0.000078 -0.872346 -10.363053 -6.125714 -2.215860 -37.842940 -5.513380 -1.021822 -30.969246 -3.566729 -0.000001 0.000001 -0.000001 -106.183815 30.576881 0.867802 -3.873146 -30.203821 -10.693032 -0.454265 -24.362779 -2.894125 -0.223358 -20.802029 -0.279437 -0.000002 0.000001 -0.000003 -88.638245 55.841194 -0.037945 -5.804476 -37.121829 -13.888759 -3.701542 -50.642683 -7.009952 -3.090537 -44.954212 -3.920774 0.000002 -0.000000 -0.000000 -112.362770 -5.201175 -53.494400 -31.366179 -2.208550 -12.618676 23.710879 2.731315 1.619317 8.929951 3.374609 -4.879386 -5.795599 -0.000033 -0.000016 -0.000000 -0.000000 -0.000000 111.449066 -5.201062 -53.494534 8.536782 -4.394972 9.186900 36.896969 -7.131027 -7.157158 9.688990 4.007900 -8.712914 11.908867 -153.147430 -105.511078 -51.872360 -5.247614 -3.975293 0.000000 0.000000 0.000000 
10.344053 -17.023138 902.814880 -0.980812 2.477759 8.608186 0.000033 9.332269 96.731583 1.903475 -2.700346 -1.971336 1.555695 -0.648968 -4.411950 -3.044846 0.065559 -4.406352 -0.000003 11.280859 144.446243 -4.291767 2.174026 0.037567 0.000005 -5.374405 35.128529 -0.116778 0.949656 0.196575 0.000002 -33.815304 241.900635 -0.000000 -0.000000 0.000000 32.172596 -110.007050 103.953491 0.000000 -0.000000 0.000000 -32.625198 -110.007065 103.962524 0.000000 -0.000000 0.000000 69.790276 11.520025 120.819405 7.032478 -3.736726 -22.515278 -19.222094 64.791871 26.274862 -0.014017 -0.021613 -66.255062 13.323066 -10.199038 -17.851126 87.101974 53.394688 -0.191400 -4.096363 28.068708 12.999702 -1.038979 29.601125 3.126477 -0.116738 7.257179 1.593062 -0.000001 0.000001 -0.000002 104.340240 29.666187 -0.662934 -3.683449 29.759691 8.838300 -0.211023 17.725393 2.147344 0.021652 13.146335 1.293386 0.000001 0.000001 -0.000004 116.450157 0.000061 -0.000070 -1.073344 12.058313 6.050062 -1.166246 27.324240 3.891493 -0.264879 16.249346 1.943427 0.000000 0.000002 -0.000002 114.299843 -34.524811 -0.470162 3.415727 -6.466193 2.408608 -0.482245 16.889738 2.578235 -0.032920 3.944690 0.186849 -0.000000 0.000001 0.000000 27.695511 -23.022064 -32.867218 31.854660 -23.755482 9.197742 30.385818 -17.550386 -17.535902 -12.937463 14.915513 21.606610 6.780212 -16.442857 -14.603960 -0.000001 -0.000000 0.000003 -69.078400 10.946220 120.819466 -0.603332 -5.224375 2.529758 -17.227410 -75.517153 -51.819925 -0.003077 0.011748 29.946217 28.165146 -10.893719 -1.992606 -26.220661 -23.595650 -31.879232 20.043608 14.107442 -13.554375 -29.154968 -16.839479 -16.825752 6.188299 16.374132 0.771309 -29.892550 -17.265482 -17.251505 -12.375113 -9.124797 6.329247 0.000003 0.000001 -0.000003 -110.723526 -33.243340 0.390812 0.277344 -1.297663 2.205864 -1.072738 -26.748389 -3.794645 -0.353871 -17.483739 -0.617367 -0.000000 0.000001 -0.000001 -114.966087 -0.000042 -0.000165 -1.149632 -12.614501 -6.723592 -2.204171 -37.749158 -5.496825 -1.015209 -30.877687 -3.554186 0.000001 0.000000 -0.000001 -106.183968 30.576874 0.867778 -4.204954 -31.882507 -10.863907 -0.446801 -24.195264 -2.874423 -0.218483 -20.634614 -0.261005 -0.000002 -0.000000 -0.000001 -88.638321 55.841141 -0.037890 -6.103955 -38.397466 -13.966764 -3.624848 -50.269342 -6.913156 -3.030080 -44.580211 -3.839496 -0.000001 -0.000000 -0.000000 -112.362778 -5.201234 -53.494278 -29.484042 -3.878386 -12.041243 27.654608 1.977082 1.511594 1.948078 3.451279 -4.656989 -3.856674 -0.000024 -0.000012 0.000000 -0.000000 0.000000 111.449081 -5.201070 -53.494423 2.500083 -5.531719 4.345094 49.857246 -7.136236 -4.249227 18.029276 11.552626 -5.925689 11.908845 -153.147415 -105.510986 -27.473014 -8.141825 -3.748638 -0.000000 -0.000000 0.000000 
6.775752 -10.661577 907.783386 -0.874447 3.815551 8.459663 0.000029 9.332274 96.731537 1.952047 -3.455798 -1.631852 1.491060 -0.991729 -3.968919 -3.132483 -0.300900 -3.963283 -0.000002 11.280851 144.446320 -4.370279 2.134987 -0.070265 -0.000004 -5.374382 35.128716 -0.699058 1.348176 -0.207490 0.000009 -33.815296 241.900635 0.000000 -0.000000 0.000000 32.172600 -110.007034 103.953491 0.000000 -0.000000 -0.000000 -32.625187 -110.007057 103.962402 0.000000 -0.000000 -0.000000 69.790268 11.520002 120.819374 7.087356 -3.392767 -21.913544 -19.688063 67.651986 27.414363 -0.013311 -0.021280 -64.389047 11.619480 -10.710138 -18.534401 87.101906 53.394695 -0.191342 -3.982186 27.470632 12.956463 -1.035988 29.559887 3.120881 -0.115831 7.215875 1.588807 -0.000002 -0.000000 0.000002 104.340347 29.666134 -0.662810 -3.470583 28.635385 8.657688 -0.208439 17.635050 2.137606 0.022847 13.056149 1.284240 -0.000002 0.000000 -0.000001 116.450089 0.000053 -0.000022 -0.943916 10.969503 6.131935 -1.163995 27.295509 3.887613 -0.263950 16.220494 1.940272 0.000003 0.000001 -0.000005 114.299751 -34.524799 -0.470024 2.922140 -9.205653 2.271584 -0.477258 16.783209 2.566061 -0.032181 3.838856 0.176097 -0.000001 0.000000 0.000001 27.695442 -23.022171 -32.867027 31.969698 -22.886740 9.321455 30.385782 -17.550465 -17.535904 -13.174770 15.058591 20.997752 6.774419 -17.456425 -14.466913 0.000001 -0.000000 0.000001 -69.078423 10.946224 120.819611 -0.523994 -4.685856 3.567086 -11.656427 -76.240832 -43.887661 -0.002951 0.011542 29.304438 26.753684 -12.704433 -2.677526 -26.220665 -23.595589 -31.879229 19.123206 14.558318 -12.192325 -29.155010 -16.839474 -16.825998 6.389607 15.764597 -0.606725 -29.892473 -17.265480 -17.251366 -12.414356 -9.096559 6.573747 -0.000003 -0.000001 -0.000001 -110.723518 -33.243305 0.390800 -0.017397 -3.954816 1.516614 -1.084221 -26.902717 -3.815387 -0.359106 -17.638270 -0.634701 0.000000 -0.000000 0.000001 -114.966240 0.000019 -0.000131 -1.500563 -15.312567 -7.437961 -2.208330 -37.782605 -5.502733 -1.017792 -30.913583 -3.559099 0.000000 -0.000000 -0.000001 -106.183929 30.576920 0.867788 -4.671480 -34.095389 -11.124324 -0.444133 -24.134419 -2.867289 -0.216724 -20.573985 -0.254329 -0.000001 0.000000 0.000000 -88.638168 55.841164 -0.037963 -6.513433 -39.969632 -14.229557 -3.519709 -49.744640 -6.779701 -2.947019 -44.054686 -3.727099 0.000002 -0.000000 -0.000000 -112.362785 -5.201139 -53.494514 -26.523766 -5.908103 -11.733374 28.211239 1.424138 1.385224 -2.106494 4.216712 -4.627716 -3.410969 -0.000022 -0.000009 0.000000 0.000000 0.000000 111.449074 -5.201069 -53.494656 -4.496727 -6.237432 1.270036 60.498886 -6.942086 0.861085 18.813495 15.146202 -4.009264 11.908891 -153.147446 -105.511009 -0.408477 -0.000004 -0.000006 0.000000 -0.000001 0.000000 
4.228254 -3.369173 919.852051 -0.789401 4.770905 8.848095 0.000038 9.332277 96.731537 1.807556 -3.662867 -1.410926 1.675770 -1.420230 -3.520599 -2.931478 -0.737392 -3.547589 -0.000001 11.280855 144.446304 -4.268926 1.898926 -0.296990 0.000001 -5.374386 35.128605 -1.090695 1.259158 -0.925871 0.000001 -33.815292 241.900391 -0.000000 0.000000 -0.000000 32.172592 -110.007034 103.953491 -0.000001 -0.000000 -0.000000 -32.625206 -110.007042 103.962280 -0.000001 -0.000000 0.000000 69.790268 11.520006 120.819412 7.148448 -2.976080 -21.179611 -18.070539 70.980009 24.644803 -0.010878 -0.019958 -57.654180 11.812837 -9.601799 -20.428565 87.101799 53.394672 -0.191216 -4.122956 28.268210 13.844704 -1.015442 29.275041 3.082256 -0.109802 6.930563 1.559486 0.000001 0.000001 -0.000001 104.340225 29.666157 -0.662730 -3.613643 29.447145 8.621006 -0.201000 17.375658 2.109647 0.026167 12.796364 1.257922 0.000000 -0.000002 -0.000002 116.450012 0.000025 0.000210 -1.076651 12.028896 6.595572 -1.156569 27.200950 3.874767 -0.260907 16.126066 1.930035 -0.000003 0.000002 -0.000005 114.299728 -34.524876 -0.469868 2.170465 -8.598150 2.391013 -0.468336 16.591738 2.544215 -0.030912 3.646739 0.156603 -0.000001 -0.000000 0.000003 27.695477 -23.022118 -32.866940 32.075630 -22.049483 9.419565 30.385960 -17.550510 -17.535967 -12.977368 13.893792 20.015379 6.698099 -13.621649 -15.519508 0.000001 -0.000000 0.000009 -69.078415 10.946224 120.819717 -0.443446 -4.412410 4.639802 -2.991124 -76.123469 -31.144963 -0.002681 0.011057 27.945490 25.963808 -12.504326 -0.618635 -26.220507 -23.595552 -31.879318 17.521414 15.965306 -11.563234 -29.154978 -16.839540 -16.825811 7.220530 14.644945 -2.485579 -29.892422 -17.265514 -17.251287 -12.466382 -9.059701 6.899806 -0.000004 -0.000001 0.000001 -110.723373 -33.243286 0.390699 -0.330636 -6.789476 0.960912 -1.092212 -27.009240 -3.829758 -0.362750 -17.744970 -0.646689 0.000002 0.000000 -0.000001 -114.966064 0.000046 0.000041 -1.919361 -18.334559 -8.129831 -2.227781 -37.938562 -5.530285 -1.029327 -31.072214 -3.580884 -0.000001 -0.000002 0.000002 -106.183746 30.576942 0.867767 -5.234075 -36.581967 -11.374758 -0.441654 -24.078223 -2.860692 -0.215103 -20.517869 -0.248180 0.000000 -0.000000 0.000001 -88.638214 55.841240 -0.038082 -7.005784 -41.731643 -14.570721 -3.499169 -49.640288 -6.753528 -2.930771 -43.950167 -3.705005 -0.000003 0.000003 0.000001 -112.362770 -5.201159 -53.494526 -21.347944 -7.922607 -12.207083 24.430214 1.389924 1.161298 -3.987333 4.826143 -5.291983 -3.520883 -0.000022 -0.000009 0.000000 0.000000 0.000000 111.449081 -5.201084 -53.494713 -11.343104 -6.308966 0.232075 65.588285 -6.755360 4.657833 13.926138 8.824626 -2.423965 11.908849 -153.147446 -105.510994 -2.296734 -0.000005 -0.000021 -0.000001 -0.000001 -0.000001 
3.251122 4.424231 930.994873 -0.932094 4.955016 9.927229 0.000047 9.332273 96.731499 2.205649 -3.566132 -1.161613 1.658635 -1.446076 -3.019396 -2.920790 -0.807313 -3.050780 -0.000002 11.280848 144.446335 -3.985447 1.718426 -0.654104 0.000001 -5.374399 35.128452 -1.281294 0.478381 -2.463725 -0.000001 -33.815296 241.900635 0.000000 0.000000 0.000000 32.172592 -110.007050 103.953613 0.000001 0.000000 -0.000000 -32.625198 -110.007042 103.962402 0.000001 -0.000000 -0.000000 69.790276 11.520016 120.819405 7.197255 -2.573496 -20.804042 -14.689160 73.816252 19.194363 -0.007724 -0.017553 -48.051224 13.916150 -6.929420 -20.642884 87.101883 53.394695 -0.191333 -4.420026 29.855232 14.884374 -1.001124 29.073998 3.055103 -0.105606 6.729142 1.538823 -0.000001 0.000001 0.000001 104.340141 29.666073 -0.662914 -4.130108 32.060747 9.022801 -0.197093 17.236730 2.094720 0.027933 12.657281 1.243850 -0.000001 0.000001 -0.000001 116.450119 0.000034 0.000180 -1.431158 14.784549 7.363262 -1.149967 27.116573 3.863340 -0.258260 16.042748 1.921002 0.000001 0.000002 -0.000003 114.299728 -34.524818 -0.470042 1.250128 -5.398468 3.025235 -0.470537 16.638804 2.549597 -0.031203 3.690177 0.160998 -0.000001 -0.000002 -0.000001 27.695480 -23.022173 -32.867073 32.170956 -21.252258 9.484820 30.385786 -17.550413 -17.535912 -12.892720 13.164888 19.295334 7.139526 -7.028966 -13.761563 -0.000002 -0.000002 0.000002 -69.078423 10.946224 120.819649 -0.415370 -4.377694 4.995687 5.764380 -75.342389 -18.978948 -0.002880 0.011355 28.874348 26.057486 -9.697957 3.121065 -26.220516 -23.595633 -31.879221 16.121540 16.880012 -10.373655 -29.155052 -16.839500 -16.825914 7.507536 13.792963 -4.048065 -29.892565 -17.265465 -17.251438 -12.512971 -9.027266 7.193678 0.000001 -0.000001 -0.000001 -110.723236 -33.243362 0.390673 -0.559458 -8.852189 0.869140 -1.086462 -26.932901 -3.819453 -0.360145 -17.668521 -0.638083 0.000002 0.000003 -0.000001 -114.966110 -0.000023 -0.000198 -2.262632 -20.669158 -8.496556 -2.232128 -37.973185 -5.536431 -1.032014 -31.109203 -3.585956 -0.000002 -0.000000 0.000003 -106.183609 30.576843 0.867770 -5.700389 -38.535630 -11.418373 -0.434754 -23.921003 -2.842301 -0.210614 -20.360418 -0.230879 -0.000000 -0.000001 -0.000001 -88.638062 55.841133 -0.038055 -7.355718 -43.039850 -14.569372 -3.414760 -49.204987 -6.645530 -2.863895 -43.514213 -3.613696 0.000000 0.000003 -0.000000 -112.362770 -5.201190 -53.494495 -15.530481 -9.237775 -12.793821 19.834752 1.677773 0.845541 -5.331056 5.229627 -5.778532 -3.690966 -0.000020 -0.000011 0.000000 0.000000 0.000000 111.449074 -5.201084 -53.494560 -18.360839 -4.900431 -0.352168 67.024155 -6.969452 3.050481 7.133000 3.246572 1.934094 11.908858 -153.147461 -105.511009 -1.784126 -0.000002 -0.000010 -0.000001 -0.000001 0.000001 
4.329587 11.764263 938.047546 -1.062608 4.419392 10.114884 0.000017 9.332274 96.731407 2.571307 -3.284173 -0.767084 1.622438 -0.846218 -2.278577 -2.933767 -0.252648 -2.284972 -0.000003 11.280866 144.446320 -3.347804 0.983280 -1.151811 -0.000001 -5.374388 35.128777 -1.370230 -0.311104 -3.841445 0.000001 -33.815300 241.900879 0.000000 0.000000 -0.000000 32.172604 -110.007034 103.953735 -0.000000 0.000000 -0.000000 -32.625198 -110.007050 103.962769 -0.000000 0.000000 -0.000000 69.790298 11.520018 120.819550 7.156641 -2.938978 -20.956824 -17.038680 76.245709 19.156684 -0.004503 -0.013985 -36.305198 18.024270 -5.111810 -20.037892 87.101791 53.394665 -0.191399 -4.525159 30.429090 15.714419 -1.000642 29.067175 3.054202 -0.105458 6.722301 1.538122 -0.000003 -0.000001 -0.000002 104.340195 29.666126 -0.662912 -4.566555 34.022094 9.658413 -0.195025 17.162619 2.086733 0.028840 12.582648 1.236327 0.000002 0.000001 0.000000 116.450302 0.000031 -0.000065 -1.643035 16.341088 7.940362 -1.144896 27.051545 3.854526 -0.256227 15.979282 1.914139 -0.000001 -0.000001 0.000001 114.299835 -34.524826 -0.470077 0.565077 -3.978175 3.510476 -0.478098 16.801417 2.568164 -0.032271 3.850863 0.177302 0.000001 -0.000000 0.000000 27.695505 -23.022106 -32.867069 32.254373 -20.503678 9.509985 30.385723 -17.550451 -17.535963 -12.566816 11.729675 18.435183 7.672305 -1.384630 -11.224670 -0.000004 0.000001 0.000003 -69.078392 10.946224 120.819695 -0.360087 -5.371869 5.271910 12.851295 -73.576744 -9.610493 -0.003632 0.012665 32.516751 26.048274 -4.002943 8.402970 -26.220747 -23.595610 -31.879221 15.112104 17.039497 -8.538005 -29.155104 -16.839516 -16.825909 7.321712 13.263560 -5.464895 -29.892509 -17.265512 -17.251341 -12.568204 -8.989620 7.544122 -0.000001 -0.000001 0.000002 -110.723541 -33.243347 0.390646 -0.780810 -10.771791 0.822001 -1.068929 -26.697328 -3.787768 -0.352160 -17.432565 -0.611626 -0.000001 0.000001 -0.000001 -114.966057 0.000004 -0.000093 -2.605394 -22.871449 -8.801082 -2.222408 -37.895682 -5.522685 -1.026495 -31.033504 -3.575545 -0.000001 0.000001 -0.000000 -106.183899 30.576874 0.867794 -6.183659 -40.443592 -11.403127 -0.428493 -23.776377 -2.825400 -0.206500 -20.215082 -0.214945 -0.000000 -0.000001 0.000000 -88.638275 55.841148 -0.037877 -7.699576 -44.338108 -14.427728 -3.357520 -48.903823 -6.571924 -2.818459 -43.212619 -3.551293 0.000001 0.000003 0.000000 -112.362778 -5.201158 -53.494411 -10.129633 -9.606903 -13.002319 16.420950 1.938794 1.246807 -7.134960 5.267112 -4.740369 -2.772892 -0.000019 -0.000007 0.000000 0.000000 0.000001 111.449081 -5.201090 -53.494488 -23.575564 -2.942297 -0.868091 64.100390 -6.922119 2.167961 2.799119 1.267311 0.180208 11.908842 -153.147415 -105.511009 -3.382982 2.189056 0.068432 0.000002 -0.000000 -0.000000 
